"imageUrl","title","totalScore","reviewsCount","street","city","state","countryCode","website","phone","categoryName","url"
"https://lh3.googleusercontent.com/p/AF1QipPgw2upLgfBKbtg4kzi05seZgvqt7YjEjjSDvvA=w408-h306-k-no","METUKÁ Cafetería de Barrio","4.7","144","Moctezuma 1","Álvaro Obregón, Ciudad de México","Cd. de México","MX",,"+52 55 7261 4544","Cafetería","https://www.google.com/maps/search/?api=1&query=METUK%C3%81%20Cafeter%C3%ADa%20de%20Barrio&query_place_id=ChIJh2RD3oMB0oURwhf0eS_3WkA"
"https://lh3.googleusercontent.com/p/AF1QipP2ENzdEEscRBmdWz_IwZdfgkS2SCrYPWsIAd2l=w408-h612-k-no","Amore 21 coffee","4","358","Kinchil 171","Tlalpan, Ciudad de México","Cd. de México","MX","https://www.facebook.com/amore21coffee?mibextid=ZbWKwL","+52 55 8848 7302","Cafetería","https://www.google.com/maps/search/?api=1&query=Amore%2021%20coffee&query_place_id=ChIJWRIlWTP_zYURVxXuMzg2oJI"
"https://lh3.googleusercontent.com/gps-cs-s/AC9h4noFCxcezUje_E0YvwBeP_-HZVquZluWIJrhIi6AkLZLuJQPdWEOaorCmUgmCgdN8tWjiwrDPNpmzE9EGt15NY39ORlxDi4-yBcVGLmfRpDW4QNxlYzLK7B-VB8w1c0Hc90-t3qh=w408-h306-k-no","CALLEQATRO Picacho","4.3","1823","Acanceh 140","Tlalpan, Ciudad de México","Cd. de México","MX","http://www.calleqatro.com.mx/","+52 55 5645 2683","Cafetería","https://www.google.com/maps/search/?api=1&query=CALLEQATRO%20Picacho&query_place_id=ChIJtx53gLP_zYURVPI2qRz1JG8"
"https://lh3.googleusercontent.com/p/AF1QipNZ-Jqqz7CiRH_wFc41t1VX3uH-TdvcOLi6MIFM=w408-h306-k-no","9 3/4 Coffee Shop Restaurante Temático","4.5","1239","Akil 248 esq Tizimin Heroes de Padierna Local C4, Piso Plaza","Tlalpan, Ciudad de México","CDMX","MX","http://www.cafe934.com/","+52 55 1850 7767","Cafetería","https://www.google.com/maps/search/?api=1&query=9%203%2F4%20Coffee%20Shop%20Restaurante%20Tem%C3%A1tico&query_place_id=ChIJIR3RqSX_zYURSVC1Qp_hUao"
"https://lh3.googleusercontent.com/gps-cs-s/AC9h4npgEQbNEeLlduaEtzu3VR-hOGTH6lKrxN3MmhRp5Kq2snYEGgRzTM0QfZ2TUKzSGOTGIiIjk7E8tDUDLGb4lchxy36LfNN4TqjMNCj2nm9zU_xND3MU7nA3grBY7KGZNF-PEf4xNw=w408-h272-k-no","Cafebrería El Péndulo","4.5","4984","2° Piso, Anillo Perif. Blvd. Adolfo López Mateos 4690","Coyoacán, Ciudad de México","CDMX","MX","http://pendulo.com/","+52 55 5606 3114","Cafetería","https://www.google.com/maps/search/?api=1&query=Cafebrer%C3%ADa%20El%20P%C3%A9ndulo&query_place_id=ChIJHdRgw3cAzoURAi66N-ZL1OI"
"https://lh3.googleusercontent.com/p/AF1QipMuQ-mmZGyF-6A2MI77LKZfABWi6QJZTm8hL9ZM=w408-h306-k-no","La Tertulia Cafetería","4.9","10","Av San Bernabé 1089","La Magdalena Contreras, Ciudad de México","Cd. de México","MX",,"+52 55 6378 8910","Cafetería","https://www.google.com/maps/search/?api=1&query=La%20Tertulia%20Cafeter%C3%ADa&query_place_id=ChIJJ24o7GX_zYURpL9zU5JN0nU"
"https://lh3.googleusercontent.com/gps-cs-s/AC9h4nomepea8CoaaIlb5xaPP_gDwDZDZy4hzOIY7-sqTlYgwD7Z20vqaLzOs_pk2q0FgPhI1Ezu3D15t_ngPbbfryMDYjDmsacjWYZrvalRbf62W0FmMEyMfqXbQivrYDyeLhrxc5zN=w426-h240-k-no","Galibó Cafetería","4.8","15","Acanceh 573","Tlalpan, Ciudad de México","Cd. de México","MX",,"+52 55 3442 0421","Cafetería","https://www.google.com/maps/search/?api=1&query=Galib%C3%B3%20Cafeter%C3%ADa&query_place_id=ChIJWb4ntcT_zYUR8BA5IrlAr9k"
"https://lh3.googleusercontent.com/gps-cs-s/AC9h4noGzK-O567tWm9Uic-U_cDrXua2Lv_wnTrog3_Gabj6A9tQE5AwhAd95DwR0qtvGkirR874AHltmrOoI0ZVQcAxv5usqOoJ6bKjvgAgYpLC0Dt5OplxZAStFDxjo9BSlYc5bkdzZQ=w408-h544-k-no","Calleqatro Pedregal","4.2","1058","Kopoma 2a-Sección 123","Tlalpan, Ciudad de México","Cd. de México","MX","http://www.calleqatro.com.mx/","+52 55 2208 5429","Cafetería","https://www.google.com/maps/search/?api=1&query=Calleqatro%20Pedregal&query_place_id=ChIJTbCTXQD_zYURxLLNcIvCJJs"
"https://lh3.googleusercontent.com/gps-cs-s/AC9h4nrDmc_0b1rPLTGXqRNavDXb1Y8HiA7OoT8Hu3ao29YAjxgwIt9u7cTuOQV5vjiFHIo9a_pyYWfyirZugAObRcywWZq5JSR7wrnB2PN7KzeEEB4fW__5nYwRDspHl-nM6ri-OwDP=w426-h240-k-no","CAFETERÍA ISLAS","4.7","15","C. Constitución 10A","Tlalpan, Ciudad de México","Cd. de México","MX",,,"Cafetería","https://www.google.com/maps/search/?api=1&query=CAFETER%C3%8DA%20ISLAS&query_place_id=ChIJ-eh9frH_zYURnP4F-Kk2YoM"
"https://lh3.googleusercontent.com/gps-cs-s/AC9h4noecL6z22h5hHYhoM0iPG-A6hO1Pe3vfipd1hLrxxz3AeDOsnSl_mAtwuY0rTJYaR10ofUT4WFq7IYBSbsEBJaIVjb6hpJSpmQXKTZ1bDWDhWfpTQlBH51vKEI-uWOSSdtcbD2jzQ=w408-h306-k-no","Peltre Lonchería (Pedregal)","4.3","591","Blvrd de la Luz 270","Álvaro Obregón, Ciudad de México","Cd. de México","MX",,"+52 55 2289 5852","Restaurante de brunch","https://www.google.com/maps/search/?api=1&query=Peltre%20Loncher%C3%ADa%20(Pedregal)&query_place_id=ChIJ3d4gmPH_zYURlgTBlecjHIE"
"https://lh3.googleusercontent.com/p/AF1QipMZAwDIhyRCtxRq74vLZtPyK8655I59Do3xbr_z=w408-h395-k-no","Cafeteria S&A","5","10","Colonia, Balancán LT 3","Tlalpan, Ciudad de México","Cd. de México","MX",,"+52 55 9406 9423","Cafetería","https://www.google.com/maps/search/?api=1&query=Cafeteria%20S%26A&query_place_id=ChIJz9rndBP_zYURfS46OJxojrA"
"https://lh3.googleusercontent.com/gps-cs-s/AC9h4nqjdDZe72UUbQSH5bynIB5b_0JC5N5pi3K4Zo2-F-4hDLX-t5ObXikRa2_xj0nOhqSWP_wICSppQMRmloo937kdUDBPoA4kOpoMxD7sfu53JUTdGyhnLsmf1vDXEdLBbAaHU6GU9A=w408-h306-k-no","CALLEQATRO San Jerónimo","4.2","1193","Av. San Jerónimo 1971","La Magdalena Contreras, Ciudad de México","Cd. de México","MX","http://calleqatro.com.mx/","+52 55 5683 8002","Cafetería","https://www.google.com/maps/search/?api=1&query=CALLEQATRO%20San%20Jer%C3%B3nimo&query_place_id=ChIJVVXSUG3_zYURYKH8BNzphiA"
"https://lh3.googleusercontent.com/p/AF1QipPD2RZlnLOuzmavLZ5V8VoF-NYGj7WCwpIMFNcf=w408-h544-k-no","Cafetería Dulce Pecado","4.6","13","esquina con, Calle flor de Liz, Av. de las Torres 11","Álvaro Obregón, Ciudad de México","CDMX","MX",,,"Cafetería","https://www.google.com/maps/search/?api=1&query=Cafeter%C3%ADa%20Dulce%20Pecado&query_place_id=ChIJ9SZqz2L_zYURp0zPAPLjkig"
"https://lh3.googleusercontent.com/p/AF1QipPrSV0QsXuRQ1jBv8r5YblRyjWzEiY0m2TAIN1F=w426-h240-k-no","Cafetería Jardín San Ángel","4.5","80","Arteaga 32","Álvaro Obregón, Ciudad de México","Cd. de México","MX",,"+52 56 3666 3248","Cafetería","https://www.google.com/maps/search/?api=1&query=Cafeter%C3%ADa%20Jard%C3%ADn%20San%20%C3%81ngel&query_place_id=ChIJlwaAGzgB0oUR1i67yoK8XCU"
"https://lh3.googleusercontent.com/gps-cs-s/AC9h4nrJ4BUs3rMVtZ4OdycFH_n5J5ZFlh9dqsy2dkBM7ib3BMOGLZJO5geHH3CjEnURgoND5kiBkfeNri_in3qb95v3pjkHZV1Dpe1YWPgcNfxIWbWr7NnsCUbs7HnXzZ_smpkf7--26g=w408-h306-k-no","Apaches Cafetería","4.3","243","Av. Tetiz 45","Tlalpan, Ciudad de México","Cd. de México","MX",,"+52 55 8793 8555","Cafetería","https://www.google.com/maps/search/?api=1&query=Apaches%20Cafeter%C3%ADa&query_place_id=ChIJ3x0ebgf_zYURgKJvhxUqL5w"
"https://lh3.googleusercontent.com/gps-cs-s/AC9h4npqvzfmEG_xxhNEhqsl7vtxP7CcgSgiEOdNfumpE77j_-SwliQ6QFX__p17ER2F5amO21qErOPOTFqFgP2m2OemmXpQS-2RdIcS5ozomE4H_AJImrbJNF9-fCtiJYi1_1tBWSN6zw=w408-h306-k-no","Cafetería Las Rosas","4.9","14","Emiliano Zapata 11B","La Magdalena Contreras, Ciudad de México","Cd. de México","MX","https://www.facebook.com/profile.php?id=61556688593235&locale=es_LA","+52 55 6921 8292","Cafetería","https://www.google.com/maps/search/?api=1&query=Cafeter%C3%ADa%20Las%20Rosas&query_place_id=ChIJpSzDPwD_zYURA8ezYlbF77U"
"https://lh3.googleusercontent.com/gps-cs-s/AC9h4nqnk3hT52AfAvOJf9DNZXV_oH2TH2dUYc9nvRZMeOQ85SPKzaDoz7YMNzOxNFIfuqHyZ8AnW-PxUSev_-P2fcZWmuWoi2992v_bkgp09OCqhygYR7Ihk-QqwT9b4z07bwBEU6eD=w408-h306-k-no","Café Katsina","4.5","843","Francisco I. Madero 15","Tlalpan, Ciudad de México","Cd. de México","MX","http://www.cafekatsina.com/","+52 55 5485 6654","Tostadores de café","https://www.google.com/maps/search/?api=1&query=Caf%C3%A9%20Katsina&query_place_id=ChIJO8Q8Z_UAzoURFaGoDjmhYBY"
"https://lh3.googleusercontent.com/p/AF1QipNg-xkoEUHoqTWYlPmg1CnjvZZXKGEW6_xURkHI=w408-h306-k-no","Café la central","4.4","134","Av. Insurgentes Sur 3776-Local","Tlalpan, Ciudad de México","Cd. de México","MX",,"+52 55 7160 4746","Cafetería","https://www.google.com/maps/search/?api=1&query=Caf%C3%A9%20la%20central&query_place_id=ChIJSRd4IGMAzoUR2Sc2QQSTGP0"
"https://lh3.googleusercontent.com/gps-cs-s/AC9h4nqoNTyjE4_aqfMMzuENA24lz8PyRkU_hOArnQcJ68xk9HNNOKCZsrPO1I_Em2ndfqTnfu7fU82r5dSW0iBQ6rHBa_eV0ujezuSWGRqSbT8PTAVAEJ1UB8VOaYCFLsxhjKIf4g=w408-h306-k-no","El Sueño de Frida KAHFÉ","4.6","866","Mirasol 16","Tlalpan, Ciudad de México","Cd. de México","MX","http://elsuenodefrida.mx/","+52 55 7090 2564","Cafetería","https://www.google.com/maps/search/?api=1&query=El%20Sue%C3%B1o%20de%20Frida%20KAHF%C3%89&query_place_id=ChIJc8pb72T_zYURLeZTUzY3UYs"
"https://lh3.googleusercontent.com/gps-cs-s/AC9h4noRbsiywYpZTB5NK8NtD0CagmBEAkXx_Pyi18nxbdQu_MbMGq8-JgXsbAVWqWyw9gPsgbYMej3y1AEO-IoQQdfsxIs7UVF1T3qAi_zjt4g4Dd26jZj0Xif6DTY9ClCgQGTxrmsdUg=w408-h306-k-no","CalleQatro Cafetería","4.3","1315","Av. San Fernando 469","Tlalpan, Ciudad de México","Cd. de México","MX","http://calleqatro.com.mx/","+52 55 5922 4894","Cafetería","https://www.google.com/maps/search/?api=1&query=CalleQatro%20Cafeter%C3%ADa&query_place_id=ChIJe8kkm2MAzoUR9wUaFitbHl4"
"https://lh3.googleusercontent.com/p/AF1QipNG79P0ty30nHKWwoLbWWgut1kNe79T1ZBlfrSb=w408-h395-k-no","Café y Té Quiero","4.5","1182","Av. Copilco 366","Coyoacán, Ciudad de México","Cd. de México","MX",,"+52 55 4957 1381","Cafetería","https://www.google.com/maps/search/?api=1&query=Caf%C3%A9%20y%20T%C3%A9%20Quiero&query_place_id=ChIJX9dTxgIAzoURzlMl4sdYe6Q"
"https://lh3.googleusercontent.com/gps-cs-s/AC9h4nppLfxAOdc0OesmXiWAKgtW_mYxpkiL7lWiKLS17ihIPAVZmTpcPO3r-DRc5Xn7hhS994gNQHX9EfTmEtooz9VKOH-9tRGTgmhAp0rveqp6QmB25Mr7bpjkQ21YsligJaSvrus=w424-h240-k-no","Cafetería La Dolce Vitta","4.4","81","Av. de la Libertad 82","Coyoacán, Ciudad de México","Cd. de México","MX",,"+52 55 2534 0023","Cafetería","https://www.google.com/maps/search/?api=1&query=Cafeter%C3%ADa%20La%20Dolce%20Vitta&query_place_id=ChIJhSWp-GkAzoUR7IEbbM9cV-M"
"https://lh3.googleusercontent.com/gps-cs-s/AC9h4npJmf020fH_7Ab5uWoWmZwekwslov05AvJY696eHgyHL_AxyysAmerpU9qxJxVBlzqBcFXGWTGVhiRrc8PgPcXaFfBEkfwyfAYcIQ84soEtgAuHvf4joh-gMttW7omcyz_TFPOwdw=w408-h883-k-no","Cafetería Y Taquería Los Faroles","4.3","172","Av. San Jerónimo 20","La Magdalena Contreras, Ciudad de México","Cd. de México","MX",,"+52 55 2615 5412","Taquería","https://www.google.com/maps/search/?api=1&query=Cafeter%C3%ADa%20Y%20Taquer%C3%ADa%20Los%20Faroles&query_place_id=ChIJt32KlhP_zYURt-S75mfldCU"
"https://lh3.googleusercontent.com/gps-cs-s/AC9h4nr1xKehVkOGlGZq8onoh_jyTC_ToxH3l6aATX_gZ3MbHInrVwk1xFfBE4dBddlsePfe1qEIbhGAsAC08Gkilb9EhdAwJgUbMVZ_UlaiNevBVfn9s338AMr5uJK57MXj982XgEJejw=w408-h544-k-no","Café Café","4.2","185","Ayuntamiento, La Fama 121","Tlalpan, Ciudad de México","CDMX","MX",,"+52 55 5665 2849","Restaurante","https://www.google.com/maps/search/?api=1&query=Caf%C3%A9%20Caf%C3%A9&query_place_id=ChIJM25pTX0AzoURQwUqph2nb48"
"https://lh3.googleusercontent.com/p/AF1QipOFhUupJ1gYEZjX9kJqtW41Kw_W0HIpFQ_D6yKt=w426-h240-k-no","Cafetería Carabina 30 30","4.4","377","Av. Escuinapa 11","Coyoacán, Ciudad de México","Cd. de México","MX","https://www.facebook.com/CafeCarabina/","+52 55 7260 9567","Cafetería","https://www.google.com/maps/search/?api=1&query=Cafeter%C3%ADa%20Carabina%2030%2030&query_place_id=ChIJL4XBnh4AzoUReEL5lxPQO8A"
"https://lh3.googleusercontent.com/gps-cs-s/AC9h4nos1j5FCCvHgZpJ-O4GRENGPz6VFzwBPPAmq3WgFpw_zz3Ik1T0v-BBpOIPxrrmQFX-4EmYxxXEIA7qWLqavCh-KaGWHihsq9nyya7Fss5o243336pcJhb5mpEn7vqMyYUTiyT1=w426-h240-k-no","Geros Cafetería y Pastelería de Especialidad","4.7","328","C. James Sullivan 55","Cuauhtémoc, Ciudad de México","Cd. de México","MX","https://www.facebook.com/geroscafe/","+52 55 5535 5588","Cafetería","https://www.google.com/maps/search/?api=1&query=Geros%20Cafeter%C3%ADa%20y%20Pasteler%C3%ADa%20de%20Especialidad&query_place_id=ChIJEwWAmMz40YURKWBHgoS0Q-I"
"https://lh3.googleusercontent.com/gps-cs-s/AC9h4nrla5nZNWjNlLrwTyBIUgA8lurl8ANE8XvCr8as-LfNKVd1JAW9f24WObdBWP4HU18GFgFvvp4PcMqOmqnZ8b1fvugDgxcTrKARVLOmyO88I5qXiIO1pPF3RrodotlYO4WPhOfl4w=w408-h306-k-no","Finca Don Porfirio","4.3","6949","Av. Juarez 14","Cuauhtémoc, Ciudad de México","Cd. de México","MX",,"+52 55 6650 4036","Cafetería","https://www.google.com/maps/search/?api=1&query=Finca%20Don%20Porfirio&query_place_id=ChIJ0TgTPyv50YUR-iqvuuniMvI"
"https://lh3.googleusercontent.com/gps-cs-s/AC9h4nqweJFTQcudj113P0lMaESDP5NDL6ytUADlLkSgoJO9wLGPHLpYRNJv5Dv94DL-8pyRKMdaNzar6bawNEmQ0G-NBIChgM95uUqHsp44za3tD9rndiomv-DyAOjgGNAdcoXMaQC3rQ=w408-h305-k-no","Down The Rabbit Hole / Cafetería & Crepería","4.6","3536","Casa del Obrero Mundial 839","Benito Juárez, Ciudad de México","Cd. de México","MX","https://m.facebook.com/ElBlanconejo/?locale2=es_LA","+52 55 7158 7869","Cafetería","https://www.google.com/maps/search/?api=1&query=Down%20The%20Rabbit%20Hole%20%2F%20Cafeter%C3%ADa%20%26%20Creper%C3%ADa&query_place_id=ChIJn8Gc5fb_0YURWJb4J5QB5vg"
"https://lh3.googleusercontent.com/gps-cs-s/AC9h4nqTnWacKe4m2rlMVifYJ5FNkY5Mtiyv1WBPM5RY7NySVb19ReEFVgv3H1pCfxnBEi1ZPpJ1n90FxfKp-4_dNimCGEVADTwI7_-ChAotxKgMJTt0kiafI1l_x76RrA4sOsg_FkDmiw=w408-h544-k-no","Buenos Díaz Cafetería","4.8","5864","Londres 130","Cuauhtémoc, Ciudad de México","Cd. de México","MX","https://buenosdiaz.mx/",,"Cafetería","https://www.google.com/maps/search/?api=1&query=Buenos%20D%C3%ADaz%20Cafeter%C3%ADa&query_place_id=ChIJ8TBWBPL_0YUREbz5kULMXsw"
"https://lh3.googleusercontent.com/gps-cs-s/AC9h4nqFuz5VCQDMbZUNvUicbIybWMT-gwgM2r8sOCEiybYyUijs_1HFI3gEXyP0kkL7QqBpvtgUbiDef8q18RTGZnLwvjL2i1-kM3LB8u6oUcedzveDaL3X8U4C8ETVJBdrAuMBztQ=w408-h306-k-no","Café Jekemir","4.5","1419","Av. Horacio 304","Miguel Hidalgo, Ciudad de México","Cd. de México","MX","http://cafejekemir.com/sucursales.html","+52 55 5250 6242","Cafetería","https://www.google.com/maps/search/?api=1&query=Caf%C3%A9%20Jekemir&query_place_id=ChIJY4aeDav40YURiTiHoESr_wg"
"https://lh3.googleusercontent.com/gps-cs-s/AC9h4no9SxECf7LQM4bCbrZPodFhjTpafbZw6yYVHOn-rpLn3DRiEsJIL8ZSu29yrOP0wKahMQGNcMjWP8a9j1FBt4vf4JSMKICKba-eULPB9zBG1ieAxvWP-MpnDR439nqZXuwU89YIuw=w408-h544-k-no","Mechanical Wolf Cafetería","4.8","375","Calle Av. Dos 226","Benito Juárez, Ciudad de México","Cd. de México","MX","https://www.facebook.com/MechanicalWolfCafeteria",,"Cafetería","https://www.google.com/maps/search/?api=1&query=Mechanical%20Wolf%20Cafeter%C3%ADa&query_place_id=ChIJoeaSthT_0YURnT7jSDkt63c"
"https://lh3.googleusercontent.com/gps-cs-s/AC9h4nqgVrMOwcuJpaOmmjLcmoF3wTVRMQ4hFyM9LsBSpmnwFZzLxqJUM9YmRbEnFhmdTdmoZbvhGkJG_Ak_tl5TdJo7JQBEmy834IZPjNJZPubAAOwTWIbLaoSpkzaI7OWygnaC1mI=w408-h306-k-no","Blend Station","4.5","2448","Avenida Tamaulipas 60 , Col. Condesa C.P06140","Cuauhtémoc, Ciudad de México","CDMX","MX","http://www.blendstation.com.mx/","+52 55 6868 5350","Cafetería","https://www.google.com/maps/search/?api=1&query=Blend%20Station&query_place_id=ChIJEZKE30P_0YURp8id6kZbn4Y"
"https://lh3.googleusercontent.com/p/AF1QipOXpcJbuveyXwYMIy1s0mzThVh-5h8eqZ4QlGsp=w452-h240-k-no","El Convite Cafetería y Pasteleria Artesanal","4.5","457","Filipinas 832","Benito Juárez, Ciudad de México","Cd. de México","MX","http://elconvite.com.mx/cafeteria-y-pasteleria/","+52 55 5086 8945","Cafetería","https://www.google.com/maps/search/?api=1&query=El%20Convite%20Cafeter%C3%ADa%20y%20Pasteleria%20Artesanal&query_place_id=ChIJA8QH_gD_0YURzAmGeBQrcwg"
"https://lh3.googleusercontent.com/gps-cs-s/AC9h4nqlo-olYhaVyl0wHTSilto088-yG6YLzj1HgIxoWcsYZE8FA-liAD4Gok-gnHHynVWs6p7JI9YW_GsyYdpBHw7SEq8w2N1a4jdGAwru7OSjbd-jgzsyptklyvtC1N1FXkkeUY8QxA=w532-h240-k-no","Chez Vous #Timecafé","4.7","409","Blvd. Miguel de Cervantes Saavedra 41","Miguel Hidalgo, Ciudad de México","Cd. de México","MX","https://chezvoustimecafe.com/","+52 55 7911 7544","Cafetería","https://www.google.com/maps/search/?api=1&query=Chez%20Vous%20%23Timecaf%C3%A9&query_place_id=ChIJia87ntkD0oURMkfYMj6uyBY"
"https://lh3.googleusercontent.com/gps-cs-s/AC9h4npMCBXp2UiFeFOjldwbXPjjJZ8j-G0mDwEnu6X1UG8wWjVTyqXK2p7MTo2HCWwLwyT4fRd212i8pbEkkvWROiI7rkoWaje2nc7mRp3ZIbgcCfAvTs62np69bOMctEQ2qem5LXhxrQ=w408-h544-k-no","Café del Parque","4.6","1112","Newton, Polanco 215","Miguel Hidalgo, Ciudad de México","CDMX","MX","http://www.cafedelparque.com/","+52 55 2624 1160","Restaurante","https://www.google.com/maps/search/?api=1&query=Caf%C3%A9%20del%20Parque&query_place_id=ChIJ_xP1t6v40YURJmwqWm3owew"
"https://lh3.googleusercontent.com/gps-cs-s/AC9h4nohexYk9aKyirIs3pw67V8eDDsFEGNGTRKkRiyKIzxQW5edlaxcBw2NpDaYjKLXXWrEk9TXw-WQKckGJFgVQhjtptbjyx0Lbe_Hzb4FLnXoIEEfdgcS6yapmA95wJ11vyzmwQPKRA=w408-h544-k-no","Brewers Cafetería Experimental","4.8","262","Tuxpan 74","Cuauhtémoc, Ciudad de México","Cd. de México","MX","https://www.instagram.com/brewers.mx",,"Cafetería","https://www.google.com/maps/search/?api=1&query=Brewers%20Cafeter%C3%ADa%20Experimental&query_place_id=ChIJ-yUhFaX_0YURw2nYn6COViA"
"https://lh3.googleusercontent.com/gps-cs-s/AC9h4no4NRiourkxZgTDOFZWYRe-RQ0mfz03AgGC47-1MDOyrlxtr7Fvn5rlddObeekNQ4BzoFjnOYH1SzXYl0nXFluJo4pmsykNaZSdfOxkEth2gth_DhlR27ONaEMnJmzR6yYyYUQ0=w408-h544-k-no","Cardinal Casa de Café","4.5","1386","Córdoba 132","Cuauhtémoc, Ciudad de México","Cd. de México","MX",,"+52 55 6721 8874","Cafetería","https://www.google.com/maps/search/?api=1&query=Cardinal%20Casa%20de%20Caf%C3%A9&query_place_id=ChIJ05Z2Hzv_0YURcUimdYlMwkM"
"https://lh3.googleusercontent.com/gps-cs-s/AC9h4noS3j0npTM-NyZDlqdQdiy83Xtl70RMjNkRqenFtitbhFQ4-d6YJYFdGL7CvoRdDW_jlkwu1rO2si6FMxJM-IorWFQIMEAJ0GSxei1em6pn-vhRCQs3uqFmuGTo0iHxgy2tMr6O1A=w408-h486-k-no","Cafeteria ""musa""","4.8","36","Av. 8 294","Venustiano Carranza, Ciudad de México","Cd. de México","MX",,"+52 55 4571 0038","Cafetería","https://www.google.com/maps/search/?api=1&query=Cafeteria%20%22musa%22&query_place_id=ChIJB7J-rCb90YURoCkJh5c4kgI"
"https://lh3.googleusercontent.com/gps-cs-s/AC9h4nprkJtg7sWghkf2Wj6h9D4ge2GfMIYNmFh5bfNAcvF6SHS49u3Ybs7M_DLnTVBc_oBsicdVyw3B1HtlMCMm-qdRly0FhixggzPmL9LYCviI1Dw8MaaFK6wGe7tjWF3O2TeLr5N1DWXF-EZv=w408-h306-k-no","Cafetería El Oro Negro","4.7","48","C. Dr. José María Vértiz 1390","Benito Juárez, Ciudad de México","Cd. de México","MX",,"+52 55 8191 1577","Cafetería","https://www.google.com/maps/search/?api=1&query=Cafeter%C3%ADa%20El%20Oro%20Negro&query_place_id=ChIJG8uFwRX_0YUR6GDYkG1jTC0"
"https://lh3.googleusercontent.com/gps-cs-s/AC9h4nqj3MNPBwtoVFWOejWDKyKxFTDBLiA286JB06ISCkaodfEH6ZVnn0tXlxSS0JU2Bvx7L_LDlR65DMYMkLc0IFj925MI11V7uZ-xMP7tqKQIbDfyxf2nvv1LzBsakCNiwMZhDHzAcQ=w408-h306-k-no","El Café de la Esquina 26","4.6","393","Presa Las Pilas 26","Miguel Hidalgo, Ciudad de México","Cd. de México","MX","http://www.elcafedelaesquinamx.com/","+52 55 5395 7410","Cafetería","https://www.google.com/maps/search/?api=1&query=El%20Caf%C3%A9%20de%20la%20Esquina%2026&query_place_id=ChIJGfgiHKAD0oURxLFJP1sZdFs"
"https://lh3.googleusercontent.com/gps-cs-s/AC9h4nrWhGeMGO96Ry8ZSQjZ0jt9iOBeo_0rNnY0KgktfRoBbBK2Th311ZAK6192EgTnbDC2tXNL814EfLuI1GGFlkQo915wedm_Yj_-Ig3lc9a1h3VMoeyKPr8wkXMTskwYnsjJPXs=w408-h544-k-no","CAFFETTINO","5","879","Bahía de San Hipólito 126-B","Miguel Hidalgo, Ciudad de México","Cd. de México","MX",,,"Cafetería","https://www.google.com/maps/search/?api=1&query=CAFFETTINO&query_place_id=ChIJdYqC-a340YURTDLrFpzOXgs"
"https://lh3.googleusercontent.com/gps-cs-s/AC9h4nqEDZAUJQNGahzaceuirjtJPTZHbeFRKA8IDN9Z1u3aDyy71cOy8_CTHZz9RWXg-2XKu2wJ1Di6QXoZc75Fzorp0qpVmoxjlBSbiWlIV_5dxQezXorflegJzz3f6WQYE6tvsjyc=w408-h544-k-no","Café Escandón","4.3","1677","C. Sindicalismo 53","Miguel Hidalgo, Ciudad de México","Cd. de México","MX","http://cafeescandon.com/","+52 55 2614 2376","Cafetería","https://www.google.com/maps/search/?api=1&query=Caf%C3%A9%20Escand%C3%B3n&query_place_id=ChIJU12e42v_0YURSpojQ93vQTE"
"https://lh3.googleusercontent.com/gps-cs-s/AC9h4noBim8Wm2e8o_hliS2VJZmBNIhqqB7v_iNGhhL0Bg6swmnUGvxEV3KsnwwSv9coBEuaS02-gBxpvbRHq6H_SCh20Di6A1ZYJrTcOSYh76_gmcmv2DRhTPxWZKB_uwGvxZexpLrnwg=w408-h544-k-no","Qūentin Café","4.4","1711","Av. Álvaro Obregón 64","Cuauhtémoc, Ciudad de México","Cd. de México","MX","https://qentincafe.shop/","+52 55 2715 9042","Cafetería","https://www.google.com/maps/search/?api=1&query=Q%C5%ABentin%20Caf%C3%A9&query_place_id=ChIJrfB9xjr_0YUROHhUI3FrqFw"
"https://lh3.googleusercontent.com/gps-cs-s/AC9h4npl8vQCEevrpi27ZvZK6GrMxjUdadA8dsSjbo47zv0dNuOtZVKX7IbboD548A21H9-K-HnMSAbd5yTMUNCTyvCDhFd3qOIyJGDMDBcZZgC1wyoohS5zcxHD8hRg8E91IxYwcSZAbQ=w408-h544-k-no","Cafeteria","4.6","195","C. Dr. Enrique González Martínez 148 A","Cuauhtémoc, Ciudad de México","Cd. de México","MX",,,"Cafetería","https://www.google.com/maps/search/?api=1&query=Cafeteria&query_place_id=ChIJi0_wokr50YURba5Uv6PYK0U"
"https://lh3.googleusercontent.com/gps-cs-s/AC9h4nrLfYy8AQmmuhZW39VPU7nAAvqo-1QBLFGpRcvd5v-QdYTEjDtwH14tS0qpA66CqnGYKoitbPDWrVunHRd168szi96JLry0wZtN4QgJ8yT6tw_bzCgEXsGhFvITUhOjXw4hVTg=w408-h544-k-no","La Caja de Cristal","4.5","482","Av. Isaac Newton 186","Miguel Hidalgo, Ciudad de México","Cd. de México","MX","http://lacajadecristal.com/",,"Cafetería","https://www.google.com/maps/search/?api=1&query=La%20Caja%20de%20Cristal&query_place_id=ChIJ13Envxb50YUROn627mhLe2I"
"https://lh3.googleusercontent.com/p/AF1QipMdY6uMUiUvqeL98ySlRR5W1Oy2JhM_4KGcr62F=w408-h725-k-no","Usuy Cafeteria","4.3","56","Emiliano Zapata 9","Tlalpan, Ciudad de México","Cd. de México","MX",,,"Cafetería","https://www.google.com/maps/search/?api=1&query=Usuy%20Cafeteria&query_place_id=ChIJB9X178EAzoURvfrTdgfCdXA"
"https://lh3.googleusercontent.com/gps-cs-s/AC9h4no6abpeD7ECaupti4F4NbOF_ajXtrEKmfwIuuPbGaCubXcdv8ZsHfZ7kfWJgjoBSLVLA3AfxoLmRUsn9hGVrEo6qf8Kev4LnAXts4OpPDqjRvVNrfFlVvCChuNLKBa0rPZRVm4=w408-h306-k-no","Cafetería Vegana Les Gords","4.5","245","Ahuanusco 33 local B Sto Domingo","Coyoacán, Ciudad de México","CDMX","MX",,,"Cafetería","https://www.google.com/maps/search/?api=1&query=Cafeter%C3%ADa%20Vegana%20Les%20Gords&query_place_id=ChIJR8nFGxcAzoUR2GNExKysObA"
"https://lh3.googleusercontent.com/p/AF1QipNYzJCg_YZ8kHaWcdhDETkDyVLQ-YAhyvT4p-0G=w408-h306-k-no","Pastelería y Cafetería Condesa","4.4","7","Chabacano 167","La Magdalena Contreras, Ciudad de México","Cd. de México","MX",,"+52 55 1694 7893","Cafetería","https://www.google.com/maps/search/?api=1&query=Pasteler%C3%ADa%20y%20Cafeter%C3%ADa%20Condesa&query_place_id=ChIJTXdJSAv_zYURadZPxpMUGgE"
"https://lh3.googleusercontent.com/p/AF1QipNwLjFYsaGgS57VwZWfCmvtNRt-xxKGOhHpgK0=w408-h306-k-no","Cafetería La Casa de las Flores","4.2","30","Izamal LT 2","Tlalpan, Ciudad de México","Cd. de México","MX",,"+52 55 4873 5594","Cafetería","https://www.google.com/maps/search/?api=1&query=Cafeter%C3%ADa%20La%20Casa%20de%20las%20Flores&query_place_id=ChIJe0qdrgn_zYURz0hKMV4RaPY"
"https://lh3.googleusercontent.com/gps-cs-s/AC9h4nrMvfEFIbgDho2TuV-3VucG1_TBHj25vImeXYMPTaKy0otL47pO0vt0I8xf0oAU_3By7xR-rc5X95JGRN9EzF2YQ6JZge4k_ANsoSkB3zQtEGWtTfFhhjHDJVpDIFf53jDZ6bvfPQ=w408-h306-k-no","Cafeteria Kalli Papalotl","4.5","250","La Loma 90","Tlalpan, Ciudad de México","Cd. de México","MX",,"+52 55 4108 4252","Cafetería","https://www.google.com/maps/search/?api=1&query=Cafeteria%20Kalli%20Papalotl&query_place_id=ChIJZUht45oAzoURDaaqu1DHAsc"
"https://lh3.googleusercontent.com/gps-cs-s/AC9h4nojt_n1vGf-LuCgXp7b11LuRQ-CvNDzVdFEgBm7q_MHYmfSAiENv1E3tJQ2Qk5o5S70RWt44lhpOPHCtSt8f6nnl8rt8qq_RaRHM03jGHmr2-dF5enxnfjlqu9gLZq6Ve8liAPP=w408-h550-k-no","Cafetería Dendera","4","185","Amezquite 408","Coyoacán, Ciudad de México","Cd. de México","MX",,,"Cafetería","https://www.google.com/maps/search/?api=1&query=Cafeter%C3%ADa%20Dendera&query_place_id=ChIJPeQaOxYAzoURGUcaxxsj7yM"
"https://streetviewpixels-pa.googleapis.com/v1/thumbnail?panoid=BRT3ovnh8sYzQwLewcAyEg&cb_client=search.gws-prod.gps&w=408&h=240&yaw=339.7273&pitch=0&thumbfov=100","Cafetería y pastelería condesa","4.5","34","Av. Álvaro Obregón 1165-L-10","La Magdalena Contreras, Ciudad de México","Cd. de México","MX",,"+52 55 3721 3228","Cafetería","https://www.google.com/maps/search/?api=1&query=Cafeter%C3%ADa%20y%20pasteler%C3%ADa%20condesa&query_place_id=ChIJN6adCwr_zYURVS8GqhUHV4E"
"https://lh3.googleusercontent.com/p/AF1QipM0U0wTZOMjiJm8Ec5sBooATzb2eiHsemWsyyF-=w408-h306-k-no","Cafetería La Tentación","4.7","128","Piste 10","Tlalpan, Ciudad de México","Cd. de México","MX",,"+52 55 5644 4817","Cafetería","https://www.google.com/maps/search/?api=1&query=Cafeter%C3%ADa%20La%20Tentaci%C3%B3n&query_place_id=ChIJ877jgE3-zYURGzzowBae6Hc"
"https://lh3.googleusercontent.com/p/AF1QipP45jgzjWOSm1_JdTgx11AB7Mkg4v-vlHSsISYd=w427-h240-k-no","Cafeteria Ali & Be","4.6","57","Xochiapan 69","Coyoacán, Ciudad de México","Cd. de México","MX",,,"Cafetería","https://www.google.com/maps/search/?api=1&query=Cafeteria%20Ali%20%26%20Be&query_place_id=ChIJieslTD0AzoURhD8-VCU5a_0"
"https://lh3.googleusercontent.com/p/AF1QipNaJDvfmhWp1e6wfWHSlM5IKoW1SSB3vobX9tR8=w408-h306-k-no","EL RINCÓN Cafeteria","4.5","29","Av. Copilco 178-edificio 21, local 07","Coyoacán, Ciudad de México","Cd. de México","MX",,"+52 55 1727 9119","Cafetería","https://www.google.com/maps/search/?api=1&query=EL%20RINC%C3%93N%20Cafeteria&query_place_id=ChIJPzHdiWn_0YURQ73o2bL-Apw"
"https://lh3.googleusercontent.com/gps-cs-s/AC9h4npNAgcoU-OayjudpiWMdiNV7bpcZb42Qiox-AYDtSwjWtzcTLN3O4HQTk5oe-zoNRZf9fKFdKeSMMJ_ptV1K1Ghn_w-Krr7VaJxvi4zNEXpx4TaQrNZgT2cjQNZ8bHgQEnnIY5gJw=w408-h544-k-no","Cafeteria Veterinaria","4","458","Investigación Científica 68","Coyoacán, Ciudad de México","Cd. de México","MX",,,"Cafetería","https://www.google.com/maps/search/?api=1&query=Cafeteria%20Veterinaria&query_place_id=ChIJP1iwExsAzoUR0Xhb-BlVWFo"
"https://lh3.googleusercontent.com/gps-cs-s/AC9h4nonbWhTHt7xETzNMwGrZRk3KrH_DYVW5JeFZza0N5kXP4XkHjuzApSXiazX2bT_hy9sVcBHAs6TozdyspMm_Mt5NdweUcXTmRebR2-gkAfNm7EQEars9DZbkf11JFPm-CDa1i3P=w408-h544-k-no","Pardal","4.8","35","Loreto, Av Paseo del Río 6 esquina","Coyoacán, Ciudad de México","CDMX","MX","https://instagram.com/pardal.mx?utm_medium=copy_link","+52 56 1209 6018","Cafetería","https://www.google.com/maps/search/?api=1&query=Pardal&query_place_id=ChIJ1yYyPKj_0YURtZ8kYTX7JmA"
"https://lh3.googleusercontent.com/p/AF1QipP7nhK8XkP4vsozXBDWh3yWKOk60lBRB4XnLo8P=w408-h544-k-no","Pan y Pastelería Fina Ditsey Cafetería","5","1","Tlalpan, Acanceh 294","Tlalpan, Ciudad de México","Cd. de México","MX","https://m.facebook.com/107303304832769/","+52 56 1860 6158","Pastelería","https://www.google.com/maps/search/?api=1&query=Pan%20y%20Pasteler%C3%ADa%20Fina%20Ditsey%20Cafeter%C3%ADa&query_place_id=ChIJSRgkM7__zYURjmT7p4dJfHs"
"https://lh3.googleusercontent.com/gps-cs-s/AC9h4no_jRCsPfNuyPqPE4won08MB-gjwjCr7VuuZZfao4QddMAUeqzETP2SZFj0Qhovov_0myr983fLqWnutUsML2fmyuXdI_U3SvPpt7Uz2ZXyjhvGwECRKWURB4jvOPYcfaSmUltn=w408-h544-k-no","Café Punto Cereza","4.5","240","Av Renato Leduc 155","Tlalpan, Ciudad de México","Cd. de México","MX",,"+52 55 3723 0636","Cafetería","https://www.google.com/maps/search/?api=1&query=Caf%C3%A9%20Punto%20Cereza&query_place_id=ChIJOVmkOFkAzoURAGWI_yvCkxA"
"https://lh3.googleusercontent.com/gps-cs-s/AC9h4nofTN1NoQ3Ho8Sz4AtoSY1N28Q5hg9FT_cnOj3wax36tI6R6DuOfHWw-tVkxFl9M6BFm7QqeA2N_b13Getk7ETr5y7zBi3veTsEGuCwCHCDODmsv3H-TApLP8uXJnZkLuTPB3Jg=w408-h544-k-no","Gran Café Oxtopulco","4.5","25","Av. Universidad 1886","Coyoacán, Ciudad de México","Cd. de México","MX",,,"Cafetería","https://www.google.com/maps/search/?api=1&query=Gran%20Caf%C3%A9%20Oxtopulco&query_place_id=ChIJV-4cbqn_0YURVeCvkVbHSEE"
"https://lh3.googleusercontent.com/p/AF1QipO-AXICCNlByKV_TmwycgnDSQgxk75MxiaYNEOQ=w493-h240-k-no","Cafetería El Buen Saber","4","43","Emiliano Zapata Mz28 Lt43","La Magdalena Contreras, Ciudad de México","Cd. de México","MX","https://www.instagram.com/el_estructurista_del_cafe?igsh=MWZtN2V1d2xqcnZwbQ==","+52 55 7641 3557","Cafetería","https://www.google.com/maps/search/?api=1&query=Cafeter%C3%ADa%20El%20Buen%20Saber&query_place_id=ChIJU3dzgwz_zYURgVg7vS7bImw"
"https://lh3.googleusercontent.com/p/AF1QipMOaVBYrN7-M5z5nda1F5U7qgbPx4i-cNO-94Dp=w408-h369-k-no","Cafetería Ñasa","5","6","Av. Ahualulco, Temaxtitla, Tlalpan, 14420 Ciudad de México","Tlalpan, CDMX","CDMX","MX",,"+52 55 4061 2653","Cafetería","https://www.google.com/maps/search/?api=1&query=Cafeter%C3%ADa%20%C3%91asa&query_place_id=ChIJwUKaDm4BzoURqGw00ncT_no"
"https://lh3.googleusercontent.com/gps-cs-s/AC9h4nqp35lJZhYSitxBV9HjBD5YZqAvQ1QW3O_xeS_jy8BYsR5seJNlUa9_hehsy1EPhFVepN-JS7FmGrhrG7McdkblTC58_4NSQCAQTtXFlp_y0BcY8vPsRZC42l8_WrdJp_k0L-jm=w426-h240-k-no","Cafetería La Esperanza","4","73","C. Alborada 430","Tlalpan, Ciudad de México","Cd. de México","MX",,,"Cafetería","https://www.google.com/maps/search/?api=1&query=Cafeter%C3%ADa%20La%20Esperanza&query_place_id=ChIJJ0vU3tn_zYURNVQsYP32w64"
"https://lh3.googleusercontent.com/gps-cs-s/AC9h4nr7AUzH4Tmj5IWmcQ9XPGdhvA1Vx4TB2AHQmFMNCRuAo5xKE1hTXFX2qYE8_ngyFNNeErZuXFfEgTTGWjF2SywCQKD5hIFrkggjbi8ggK7pt35sITizzkkB-1t9QOPDVQHHwaYk=w408-h306-k-no","Cafetería y Desayunos SIMPLÉ","4.4","126","Opichen 178","Tlalpan, Ciudad de México","Cd. de México","MX",,,"Cafetería","https://www.google.com/maps/search/?api=1&query=Cafeter%C3%ADa%20y%20Desayunos%20SIMPL%C3%89&query_place_id=ChIJo0JUSWX_zYURClIj-ZmCZd4"
"https://lh3.googleusercontent.com/gps-cs-s/AC9h4nrew3eSbv5N38ZL4mM2sFt1givZPnlGeeIYy8z1oespCg33Ck2pbH21oljJq979CQH7SC1bw9BnNIlzQYaPxn1UIEQyX4PNJOf5S7bfSGbA6Tzu6-KiSiYTFh1JiKjfYIul6LEl0A=w408-h544-k-no","Cafetería Xuni","4","183","Cjon. Carrasco 43","Tlalpan, Ciudad de México","Cd. de México","MX",,"+52 55 5666 8262","Cafetería","https://www.google.com/maps/search/?api=1&query=Cafeter%C3%ADa%20Xuni&query_place_id=ChIJzSDqQV4AzoURglxku0FGceY"
"https://lh3.googleusercontent.com/p/AF1QipMZ3Sm4iIkO8ifL9_GgWrNwEHUNJYcDJxDnr8j5=w408-h544-k-no","Emma Cafetería y Postrería","4.3","6","Subida a San Bernabé 5","La Magdalena Contreras, Ciudad de México","Cd. de México","MX","https://linktr.ee/postreriaemma","+52 220 281 9777","Cafetería","https://www.google.com/maps/search/?api=1&query=Emma%20Cafeter%C3%ADa%20y%20Postrer%C3%ADa&query_place_id=ChIJoxeAqB7_zYURHatLFLPYXfo"
"https://lh3.googleusercontent.com/gps-cs-s/AC9h4noMdY_9f5QRt_bWBLltNvrPud6n9sUhHV8mMyWbdL2FxmLYIOnhwKnO-vBlt-Y1lAvajyoo3Q1TN9TfosD3gjUv1woxSdqFUrl7XoH4reVu-GeAOzpA9LnenBpOwHZCQSYbQPYqSVtem8c=w408-h541-k-no","Cafetería Sabor de Adobe y Pozole","5","12","Emilio Carranza 43","La Magdalena Contreras, Ciudad de México","Cd. de México","MX",,,"Cafetería","https://www.google.com/maps/search/?api=1&query=Cafeter%C3%ADa%20Sabor%20de%20Adobe%20y%20Pozole&query_place_id=ChIJIe0ARgD_zYURY2VKO3lpDFw"
"https://streetviewpixels-pa.googleapis.com/v1/thumbnail?panoid=eG69I2sZt7TTCch3x1QA9Q&cb_client=search.gws-prod.gps&w=408&h=240&yaw=286.82092&pitch=0&thumbfov=100","Cafeteria Soviet","5","2","10600","La Magdalena Contreras, Ciudad de México","CDMX","MX","https://www.cafeteriasoviet.com/","+52 55 5967 5805","Cafetería","https://www.google.com/maps/search/?api=1&query=Cafeteria%20Soviet&query_place_id=ChIJtSMjG8j_zYURDlQAjRAdSMQ"
"https://lh3.googleusercontent.com/gps-cs-s/AC9h4noXsNIdO7QB1akqOlGqNe7BJaMLehcYWo65C_-MpoiMkMCoqVJQqRKSA6IcsQ8zvkTSEwSFH0Ocek2wObb4djTtPz2lZVE4nCXzrOk2vOFsT4grWAJqYTa7F-ItvH5jEpsyKDes=w408-h408-k-no","Cafetería Diseño","4","785","Circuito bicipuma 3000 Planta Baja del Edif. de Diseño Industrial (frente al CELE","Coyoacán, Ciudad de México","CDMX","MX",,,"Cafetería","https://www.google.com/maps/search/?api=1&query=Cafeter%C3%ADa%20Dise%C3%B1o&query_place_id=ChIJzVE9Ym8BzoURqWQ05enn0Ls"
"https://lh3.googleusercontent.com/gps-cs-s/AC9h4no7CE87FA5z7NLCyGuETtTfi-ZsHZTskOTrXSSv4oynsxExbetNQe9N6NaCxvDjeLiGz9oKgiikaQmb9EqKIgpMP4bP780GCis_mhHMkk8Ivi5Rigl4YQFCKeW0C2DqQnwn_vM=w408-h306-k-no","Restaurante Cafetería Roman's","4.3","7","Paso de C U","Coyoacán, Ciudad de México","Cd. de México","MX",,,"Cafetería","https://www.google.com/maps/search/?api=1&query=Restaurante%20Cafeter%C3%ADa%20Roman's&query_place_id=ChIJn3FQUhcAzoURXw3hZ0qrprM"
"https://streetviewpixels-pa.googleapis.com/v1/thumbnail?panoid=nSTWbRsCGkDKUHcwfVWKsQ&cb_client=search.gws-prod.gps&w=408&h=240&yaw=136.44774&pitch=0&thumbfov=100","Cafetería YARYS","4.3","13","Cda. 5 de Mayo 68","La Magdalena Contreras, Ciudad de México","Cd. de México","MX",,"+52 55 3994 9739","Cafetería","https://www.google.com/maps/search/?api=1&query=Cafeter%C3%ADa%20YARYS&query_place_id=ChIJN3j6V97_zYURRJWOsi6BPvY"
"https://lh3.googleusercontent.com/gps-cs-s/AC9h4noIHsQmjma8kuXFHCXPb1KlbNbTgmh4xDfwnZxzUczOnyHrukIVLa4UPm6Sc9wqdR0Tx3UrzH34SmRJPmY-45UtU3uM8O680Iq0QBu98RbSfEQHRuX5EqXtYU0rLxGgZWea9-A=w408-h306-k-no","Cafetería Clave de Sol","4.7","3","Plaza Altamira, Av San Bernabé 327","La Magdalena Contreras, Ciudad de México","CDMX","MX",,,"Cafetería","https://www.google.com/maps/search/?api=1&query=Cafeter%C3%ADa%20Clave%20de%20Sol&query_place_id=ChIJZ4k-5Yn_zYURGRo4DEUOBYo"
"https://lh3.googleusercontent.com/p/AF1QipNSGYjLeYH_neW3Xe_IQunyPSAkuQaVAZttad5t=w408-h408-k-no","Cafetería Torres","4.5","29","Calz. de Tlalpan 4816","Tlalpan, Ciudad de México","Cd. de México","MX","https://www.facebook.com/torrescafe/","+52 55 3578 2885","Cafetería","https://www.google.com/maps/search/?api=1&query=Cafeter%C3%ADa%20Torres&query_place_id=ChIJuSWUDmL_0YURtcAB_aRqE-M"
"https://lh3.googleusercontent.com/gps-cs-s/AC9h4nqg3sRQPjEDpnrlMdn_gABjM9RnFl9B6Mq6xHJ30HhvnmBIyQDFx3rYqRQmtENIsXSuus0rVvxcnpUfgu8i6VpWZ_ESMaMUh_ufGD5Qdd-FDUYf1xiufTo73WWaFTXkFwFUhZo=w408-h544-k-no","Dönza Cafetería y Repostería.","4.5","71","Hidalgo 82","Álvaro Obregón, Ciudad de México","Cd. de México","MX",,"+52 55 2457 2457","Cafetería","https://www.google.com/maps/search/?api=1&query=D%C3%B6nza%20Cafeter%C3%ADa%20y%20Reposter%C3%ADa.&query_place_id=ChIJ1_-7DwYA0oUR6eQIGKyyt6k"
"https://lh3.googleusercontent.com/gps-cs-s/AC9h4nofNA7iQ6HvVM6Uc_xQtYh__OTGtTcm0ppHVBn3NAkSEt16X-tFHu4wVLDsuGnSG992Lmqp7HtcABn8S1nGjzcfGNG91bUBC-wbg3B31yD7ysiQc97G2fN5dXHD1WH60AyQ9BOq=w408-h306-k-no","Cafeteria Maicoficup Galería","5","3","Calz. de Tlalpan 4840","Tlalpan, Ciudad de México","Cd. de México","MX",,"+52 55 8494 4761","Cafetería","https://www.google.com/maps/search/?api=1&query=Cafeteria%20Maicoficup%20Galer%C3%ADa&query_place_id=ChIJy5B5P_QAzoUR_Nh6BHr6Gl4"
"https://lh3.googleusercontent.com/gps-cs-s/AC9h4npPNKQUWxvlIUfw9Beoq7HPd8cP50YFlM_dWKPrc0-sz42jKT9_6Q8vnHfOlO_mVwlfJc6UyUGLYiWHzpSR0ga7PcuvE5Ei9eE2daBDX-UylvZ26LQUsDa6Qq5VB0tTzy5soQ6FRA=w408-h306-k-no","Café Pasión Polanco","4.3","197","Av. Ejército Nacional Mexicano 418","Miguel Hidalgo, Ciudad de México","Cd. de México","MX","http://www.pasioncafe.com.mx/","+52 55 5203 0692","Cafetería","https://www.google.com/maps/search/?api=1&query=Caf%C3%A9%20Pasi%C3%B3n%20Polanco&query_place_id=ChIJNyTJoJT50YURwi8nPpFaTL0"
"https://lh3.googleusercontent.com/gps-cs-s/AC9h4no861d0KsfrQJLUTL_IciNN09N-Dl-dvWz6gwRMMVg3e7cxYcPbqC-dN4ePP-62I-C-6Rhs7n67_LWl-Evu29GVUSor2So6s3PF-edohQFR9cO5eWOzmySZFz7UvSHswK_DgBK2=w424-h240-k-no","Cafe La Tregua","4.5","346","Calz México-Tacuba 409","Miguel Hidalgo, Ciudad de México","Cd. de México","MX",,,"Cafetería","https://www.google.com/maps/search/?api=1&query=Cafe%20La%20Tregua&query_place_id=ChIJU2dBdL340YURzuvyUspuraE"
"https://lh3.googleusercontent.com/gps-cs-s/AC9h4nofw0TkaY3vddZKINHqkLJkMZ_UPqXaZNnP4n5pJuHixPeaYGQxg8HnkkcJItl2eKE95r2QsioPKVa9TIZ5POH80FuSFm_KaHNmzUdf5Gcenu_jEHxNqLFnGiSDBCqcUZDEKleg=w408-h306-k-no","Cafeteria Sabor a mi","4.5","32","C. Gral. Esteban Baca Calderón","Iztapalapa, Ciudad de México","Cd. de México","MX",,,"Cafetería","https://www.google.com/maps/search/?api=1&query=Cafeteria%20Sabor%20a%20mi&query_place_id=ChIJZSPm4aj90YUR_N1WZ96E3xk"
"https://lh3.googleusercontent.com/gps-cs-s/AC9h4nrDgEylbB3F33kEeihn41OQcFGbM58lERathOUQtmNEMgDvy9JJnA2ZG441DA7FXNflOWO8SrHh73a5WKdpHcH5ORrPs603qWw6JyxCxgZfL9Yu9Mr81eBnPPAWu12DQTjn4cIa=w426-h240-k-no","Cafetería del CCH Sur","4","6","Calle Cataratas 470","Coyoacán, Ciudad de México","Cd. de México","MX",,,"Cafetería","https://www.google.com/maps/search/?api=1&query=Cafeter%C3%ADa%20del%20CCH%20Sur&query_place_id=ChIJj9z9Eg3_zYURX9E3NNSUjCk"
"https://lh3.googleusercontent.com/p/AF1QipObKcFa_0l9XxQ29fB8m7XXxBBjViD1L9mA-h0l=w408-h306-k-no","CAFETERIA LA VIA DEL TREN","3.7","3","F.C. de Cuernavaca #4","La Magdalena Contreras, Ciudad de México","Cd. de México","MX","https://cafeteria-la-via-del-tren.negocio.site/?utm_source=gmb&utm_medium=referral","+52 55 2257 8961","Cafetería","https://www.google.com/maps/search/?api=1&query=CAFETERIA%20LA%20VIA%20DEL%20TREN&query_place_id=ChIJjeG0tFz_zYURGBAHGXMqu7w"
"https://lh3.googleusercontent.com/gps-cs-s/AC9h4noytqm2wEnmxdmiiwH_I_8lOfBTSNyEkp9DYGj_W4l9rc9j4B1oxlu-y0jr1rIg37jJ6qqIWT3euX6s9RusqlfcibOfYAQBRxog03rfidIw9ToPmw_iy0FUT3gi5gjAGQrZVv2-=w408-h544-k-no","Cafetería Barro","4","25","Av. Insurgentes Sur 4138","Tlalpan, Ciudad de México","Cd. de México","MX","https://barrorestaurantes.com/","+52 55 6212 5460","Cafetería","https://www.google.com/maps/search/?api=1&query=Cafeter%C3%ADa%20Barro&query_place_id=ChIJRV-FFwABzoURk84NRuNhcYU"
"https://lh3.googleusercontent.com/p/AF1QipPQ-wXTcmZ6wHiONHIRWxuFNd8T3TdR6y-PfDt8=w408-h544-k-no","Cafetería ""La postal ll""","4.4","51","Otomíes manzana 45-lote 3","Coyoacán, Ciudad de México","Cd. de México","MX",,,"Cafetería","https://www.google.com/maps/search/?api=1&query=Cafeter%C3%ADa%20%22La%20postal%20ll%22&query_place_id=ChIJa5owHdQBzoURiNkKfwtwZbQ"
"https://lh3.googleusercontent.com/p/AF1QipPfpAdwj-pERtPMdP2ZhbXSZ1yT7f6nfsaMPMz_=w408-h537-k-no","Cafeteria Sabor a mi / Desayunos","4.7","7","Huauchinango 52","La Magdalena Contreras, Ciudad de México","Cd. de México","MX","http://wa.link/h8znkk","+52 56 4922 9614","Cafetería","https://www.google.com/maps/search/?api=1&query=Cafeteria%20Sabor%20a%20mi%20%2F%20Desayunos&query_place_id=ChIJicZMC5D_zYURwbanjdn-Kec"
"https://lh3.googleusercontent.com/gps-cs-s/AC9h4npSlZaft3MNyFkwyOfd4BV5hwcl9inkx3BIozMkUbVtRMwuUBhvT_n5xRyc89ZOV7SPvj5_uNrSnoo666_tjTbeK831u7CEe8x15OYIsMnpXYujDeFvfUhdRCObvWRcYuDxftzn=w408-h440-k-no","qué plan? cafetería saludable","5","1","Río Magdalena 10","La Magdalena Contreras, Ciudad de México","Cd. de México","MX","https://facebook.com/queplan.cafeteriasaludable/","+52 55 1683 5634","Cafetería","https://www.google.com/maps/search/?api=1&query=qu%C3%A9%20plan%3F%20cafeter%C3%ADa%20saludable&query_place_id=ChIJyZnlIRP_zYURAOlfT5HWwhc"
"https://streetviewpixels-pa.googleapis.com/v1/thumbnail?panoid=tgjSG9Xyh8gV9hEoWpns5Q&cb_client=search.gws-prod.gps&w=408&h=240&yaw=304.43607&pitch=0&thumbfov=100","Cafetería","4.3","3","Amatenango","Tlalpan, Ciudad de México","Cd. de México","MX",,,"Cafetería","https://www.google.com/maps/search/?api=1&query=Cafeter%C3%ADa&query_place_id=ChIJ_UKkZgD_zYURgei3h0_0Hx8"
"https://lh3.googleusercontent.com/gps-cs-s/AC9h4nrv1lC9Sgrjc4Xevt470ETl6kgocvDPzyXMpuLoLByrj0RQQIKdp5aaTFjedypOLPZLynM8YJ9gkr3I9sap7bzjvWqQPRmt28cozaRC6GPeMKxbXOZa9t0OQvjGdxIvtM63O0_c=w425-h240-k-no","Cafetería FCPyS","4","362",,"Coyoacán, Ciudad de México","Cd. de México","MX",,,"Cafetería","https://www.google.com/maps/search/?api=1&query=Cafeter%C3%ADa%20FCPyS&query_place_id=ChIJR6R8DmUBzoURIRSA_pVtXNQ"
"https://lh3.googleusercontent.com/p/AF1QipNTTlhBEtGgT3ZeDzXGegLkU5kMjonRCsIcT8D2=w426-h240-k-no","Cafetería Swim In","4.7","13","Camino Sta. Teresa 514","Álvaro Obregón, Ciudad de México","Cd. de México","MX",,,"Cafetería","https://www.google.com/maps/search/?api=1&query=Cafeter%C3%ADa%20Swim%20In&query_place_id=ChIJ7xa0es3_zYUR1Mn1JE73m2s"
"https://streetviewpixels-pa.googleapis.com/v1/thumbnail?panoid=Z2G_PqSy3o6X7eMSANJoSw&cb_client=search.gws-prod.gps&w=408&h=240&yaw=236.11118&pitch=0&thumbfov=100","Cafetería ilusión","5","1","C. Jalapa 34","Álvaro Obregón, Ciudad de México","Cd. de México","MX",,,"Cafetería","https://www.google.com/maps/search/?api=1&query=Cafeter%C3%ADa%20ilusi%C3%B3n&query_place_id=ChIJVy8GbAkA0oUR8ycdRv_kcds"
"https://lh3.googleusercontent.com/gps-cs-s/AC9h4nqgNazxOct7_s02zD8mpXSdYQWHA4vCj5DdDiqscEfS9_s9iNnJsx0n1dcL841YwtFune3cG6c2IwN8CugtuefKADAfQRfJ8USbKdg4oDyKBjLdbFMxSL2YJm-Q7afSEs4MVgv4tw=w408-h271-k-no","Cafetería Facultad de Medicina","3.6","107","Escolar 411A","Coyoacán, Ciudad de México","Cd. de México","MX",,,"Cafetería","https://www.google.com/maps/search/?api=1&query=Cafeter%C3%ADa%20Facultad%20de%20Medicina&query_place_id=ChIJ-47OIAMAzoURc_HyTESlKlQ"
"https://streetviewpixels-pa.googleapis.com/v1/thumbnail?panoid=L0Xu--xG0z63pe8rl-XoeQ&cb_client=search.gws-prod.gps&w=408&h=240&yaw=310.54184&pitch=0&thumbfov=100","Cafetería Folklor","4.7","3","Otomíes 203","Coyoacán, Ciudad de México","Cd. de México","MX","https://www.facebook.com/Desayunos-Folklor-360958121117730/?modal=admin_todo_tour","+52 55 3287 3845","Cafetería","https://www.google.com/maps/search/?api=1&query=Cafeter%C3%ADa%20Folklor&query_place_id=ChIJn9xDukQBzoURID6dQxk-DVs"
"https://lh3.googleusercontent.com/p/AF1QipM3BlgBkP903DWsyPI6X0FsTbYU60XEJx8B6w1t=w426-h240-k-no","Café del Comité Cerezo","4.7","16","Facultad de Filosofía y Letras","Coyoacán, Ciudad de México","CDMX","MX",,"+52 55 1047 2031","Cafetería","https://www.google.com/maps/search/?api=1&query=Caf%C3%A9%20del%20Comit%C3%A9%20Cerezo&query_place_id=ChIJlReNsQEAzoURVYMhKo6Lavg"
,"Cafetería La Cabaña del Bosque","5","2","Camino Sta. Teresa","Tlalpan, Ciudad de México","Cd. de México","MX","https://www.instagram.com/caf.lacabana/profilecard/?igsh=MWVxZWxsdjI5MWh0eA==",,"Cafetería","https://www.google.com/maps/search/?api=1&query=Cafeter%C3%ADa%20La%20Caba%C3%B1a%20del%20Bosque&query_place_id=ChIJSz2yEwD_zYURe6xdi48tsVA"
"https://lh3.googleusercontent.com/gps-cs-s/AC9h4npMyypKde6GG5g9jxVlYm-tcBelP0zpGUEIObI4SO870jcZDevOezv9Hr1SnOhxxd41xY7m17aw_k102Myxy3y4smDMGHeijO4ebp76sthJXvM4aIGUDAFZSp86Xc4VBj4frA0=w408-h544-k-no","Cafeteria Del Bosque","4.3","19","Carlos Lazo 1","Tlalpan, Ciudad de México","Cd. de México","MX",,,"Cafetería","https://www.google.com/maps/search/?api=1&query=Cafeteria%20Del%20Bosque&query_place_id=ChIJGT2D9iz-zYUR75zAWEDmtDg"
"https://lh3.googleusercontent.com/gps-cs-s/AC9h4nobAp9EKEPk06VkUtRrme-tN2QXYBkXSsFZbYUnnaJ1MqTBrrH6NrMEtsXFFS7e6nKuF9IUvSnMrH6yU8Aj4_oGErcFgcBkBORoyd4V97famK_BsBubuFoihP56vFCj3lZ2KeuX8w=w408-h306-k-no","Cafetería Universum","4","181","Cto. Centro Cultural de","Coyoacán, Ciudad de México","Cd. de México","MX",,"+52 55 5171 9595","Cafetería","https://www.google.com/maps/search/?api=1&query=Cafeter%C3%ADa%20Universum&query_place_id=ChIJabEM-Pj_zYURpHaCPZxcUso"
"https://lh3.googleusercontent.com/gps-cs-s/AC9h4no4Rg4elS4fqfkqvprTBKYwXhKEeepxI2Ff-M_1lexj05sdZbuIT1orXgtkA3ia0OLVUBVHDwGhHlYeKXxNYFDdIe0HrlfTl6KIqub5EDTRBX7_lQ4rFeiyL8yDrNsmV0piYzQ=w408-h306-k-no","Cafetería Vivanco","4.4","43","Moneda S/n. Esquina con insurgentes Tlalpan","Tlalpan, Ciudad de México","CDMX","MX",,"+52 55 5171 5904","Cafetería","https://www.google.com/maps/search/?api=1&query=Cafeter%C3%ADa%20Vivanco&query_place_id=ChIJCV7OkZ8BzoURDLgql9bg25k"
"https://lh3.googleusercontent.com/gps-cs-s/AC9h4npSqvkYzI1oNPFdBz_HzE1QFWUkPx4eCl2mShGfywtRIP22J9L5kbdJtucoXizElFa4n3bUGR1nBD_57W8VA2qDWqdUBPWIUoh0j4TEN9eaGAD2pjHYRfuPJA3UsWw06b3WR_k=w408-h544-k-no","PUNTO CAFÉ BARRA DE CAFÉ DE ESPECIALIDAD","4.3","211","Nezahualpilli 26, esquina, C. Tonantzin","Miguel Hidalgo, Ciudad de México","CDMX","MX",,"+52 55 7045 1085","Cafetería","https://www.google.com/maps/search/?api=1&query=PUNTO%20CAF%C3%89%20BARRA%20DE%20CAF%C3%89%20DE%20ESPECIALIDAD&query_place_id=ChIJw1-xvbf40YUR3e1An_PBiCs"
"https://lh3.googleusercontent.com/gps-cs-s/AC9h4nraYhahPuYSU1VERbTso_4wQHeSuCKLKlDil3520eSRfhIXp5MrirwDP40XTk7yLgXRCWR574d5h8XZheKAsESh6Q5LtVkttNxOxjgEaShqNt76Gz9pRHcqxFHWfIsyXOoROQg2=w408-h306-k-no","CAFETERIA LA CATEDRAL DEL BUEN CAFE","4.4","216","Av Emilio Carranza 25","Venustiano Carranza, Ciudad de México","Cd. de México","MX",,,"Cafetería","https://www.google.com/maps/search/?api=1&query=CAFETERIA%20LA%20CATEDRAL%20DEL%20BUEN%20CAFE&query_place_id=ChIJXYDWkK7-0YUR-iEBp77JXVk"
"https://lh3.googleusercontent.com/gps-cs-s/AC9h4nrvz6OZL-nFNMsRYiArgtZndgwcEKvvmFW90hxvfsG6mTyAhSqX74fKKQP2LcIyKvXqib277rFiRv3H0Fcnd6k5yBnzzICF6EZNYCIRafcVPnA8iev3BoQQtHq1tS6gKVZ84us=w408-h306-k-no","La Gula Creperia y Cafetería","4.5","129","Relaciones Exteriores 48","Venustiano Carranza, Ciudad de México","Cd. de México","MX","https://www.facebook.com/LaGulaI","+52 55 2675 5459","Cafetería","https://www.google.com/maps/search/?api=1&query=La%20Gula%20Creperia%20y%20Cafeter%C3%ADa&query_place_id=ChIJjReWylH90YUR-CV2jYhOymw"
"https://lh3.googleusercontent.com/gps-cs-s/AC9h4nrK5O361PesfCZrRaUqMI5tPfs4XQ8LqZyw4W0T9lL0nzfh8OIoyZyq9nfdHS2W_6vwqDlB6k4UzIq8xBXvEcykKpmVP1xPKYt-mij2yaXk3H5m8EXZzkT2kEqpY63Z8sEBBEM=w408-h306-k-no","Café Son Villa de Cortés","4.4","1593","Leopoldo Lugones, Javier Sorondo y","Benito Juárez, Ciudad de México","CDMX","MX","http://www.facebook.com/cafeson","+52 55 5696 9446","Cafetería","https://www.google.com/maps/search/?api=1&query=Caf%C3%A9%20Son%20Villa%20de%20Cort%C3%A9s&query_place_id=ChIJ98KLzvn-0YURlk0fY7lpXpY"
"https://lh3.googleusercontent.com/gps-cs-s/AC9h4nqJgH4lC65evYvNH0ZCu083m0I7QgCYLmFbZLIr-_DpPb5UYrYxIVJDrbWQ-GjJqWPk8ukTJZa8w6ZwDGCn7KBYmOI3Lsf1wBfJOYmS0LDQWHbk9l3pMFX68jCD8lg6pe8djmsV=w408-h306-k-no","Café C","4.4","5772","Agustín González de Cossío 231","Benito Juárez, Ciudad de México","Cd. de México","MX","https://www.cafec.mx/","+52 55 2211 0547","Restaurante","https://www.google.com/maps/search/?api=1&query=Caf%C3%A9%20C&query_place_id=ChIJAbQLOfn_0YURH-S2CzDmpnU"
"https://lh3.googleusercontent.com/gps-cs-s/AC9h4np1LFNjon7_2QuYJ4a797UcKQgQvyBKrAgRtw5WrQhwV_ZIl_vxSV9emgd99vwtMkVvnpjRB3dnlAMTxsh22WorTOOoTPwHtyLb6M8CMGsAm-luvzNaanROdWY7tkpyokiSDKPp=w408-h306-k-no","Cafetería Quetzal","4.8","32","Juan Pablo Aldasoro 211","Venustiano Carranza, Ciudad de México","Cd. de México","MX",,,"Cafetería","https://www.google.com/maps/search/?api=1&query=Cafeter%C3%ADa%20Quetzal&query_place_id=ChIJhXsCQmr80YUR-q7o7rLf6dc"
"https://streetviewpixels-pa.googleapis.com/v1/thumbnail?panoid=VEp7CHSi6y_UZkmwuMwnvw&cb_client=search.gws-prod.gps&w=408&h=240&yaw=223.04683&pitch=0&thumbfov=100","Cafeteria Del 37","4.8","53","Tlaxcanes 37","Iztapalapa, Ciudad de México","Cd. de México","MX",,,"Cafetería","https://www.google.com/maps/search/?api=1&query=Cafeteria%20Del%2037&query_place_id=ChIJ63mDO-P90YURb7hpf646RJ8"
"https://lh3.googleusercontent.com/gps-cs-s/AC9h4noEqEWqa03msvSbZE6vP5wk9mOtXdWLg3pusqd5mzlC6RvRKFxbts7r84O8X_E17xwHvpSUXHv4AWK0VIBRXPKJ_44ssUMX1RgcjFRR5TZuaYxZtYJ4Aev8jOP3McQBCS-jn__v=w408-h306-k-no","El Cafe-to","4.2","1308","Luz Saviñon 214","Benito Juárez, Ciudad de México","Cd. de México","MX","https://www.facebook.com/El-Cafe-to-1073206099363335/","+52 55 9429 3716","Cafetería","https://www.google.com/maps/search/?api=1&query=El%20Cafe-to&query_place_id=ChIJ5YGR_HL_0YURUX5tjafSYpg"
"https://lh3.googleusercontent.com/p/AF1QipOc_iRwSbXgF_Y2qqegEP1JaZDaDc5dRhjUGQtc=w408-h306-k-no","CAFETERIA LOVE SONG ☕️","4.4","142","Ote. 235-C 138","Iztacalco, Ciudad de México","Cd. de México","MX","https://www.facebook.com/lovesongcoffee/","+52 55 6181 2739","Cafetería","https://www.google.com/maps/search/?api=1&query=CAFETERIA%20LOVE%20SONG%20%E2%98%95%EF%B8%8F&query_place_id=ChIJBZpkIEP90YURJ6j6dhxFMC0"
"https://lh3.googleusercontent.com/p/AF1QipM2KufM3ZzrmnvscsUgnxUQ5kObnWeD1FKcAiV7=w408-h611-k-no","Gran Café Victoria - Barra de especialidad","4.7","33","Tolstoi 6","Miguel Hidalgo, Ciudad de México","Cd. de México","MX","http://www.grancafevictoria.mx/","+52 55 6286 4677","Cafetería","https://www.google.com/maps/search/?api=1&query=Gran%20Caf%C3%A9%20Victoria%20-%20Barra%20de%20especialidad&query_place_id=ChIJmRy_Kef_0YURcP6-w4Tolf4"
"https://lh3.googleusercontent.com/p/AF1QipONWHm-977UwQcPkVEKOMISpPnRrl2-mzi2DdlI=w408-h329-k-no","Aroma Buen Caffè","4.9","15","Presa Cointzio 10 local unico esq","Miguel Hidalgo, Ciudad de México","CDMX","MX","http://aromabuencaffe.com/","+52 720 385 5593","Cafetería","https://www.google.com/maps/search/?api=1&query=Aroma%20Buen%20Caff%C3%A8&query_place_id=ChIJQZPLLEAD0oURGk4z1U2DxgI"
"https://lh3.googleusercontent.com/gps-cs-s/AC9h4nrSsuxHoKU-QPQ2sViC45fws2zpX4KFq_0tr_nYCwqzugk4MSIzklIcwG0uCPegGft5muDH1iEWBZHZKBSqZ1WcmWE1tjqYRYDBycKvvAgJo6s4nX1mk0kJBQIQs8Am2g7Mt_2F=w408-h306-k-no","Finca Don Porfirio Cafetería san Rafael II","4.1","1287","Ignacio Manuel Altamirano 107","Cuauhtémoc, Ciudad de México","Cd. de México","MX","http://facebook.com/cusi.cafeteria","+52 55 5332 5962","Cafetería","https://www.google.com/maps/search/?api=1&query=Finca%20Don%20Porfirio%20Cafeter%C3%ADa%20san%20Rafael%20II&query_place_id=ChIJQUZj6c340YURRR_fB8ABMxk"
"https://lh3.googleusercontent.com/gps-cs-s/AC9h4nqH5nEqrm12voS2rutKMXRzhujSIVd7woUobQvCFh-tSxMZY_DeaddkUyBzEgRiBf2oYtApPloEviSIHKXTCkjw2MDcDdiXk6sxv4NQXrhfjIeSRnxXw1Qh6aZLjPGXkFV1-D_L=w408-h306-k-no","Constela Café","4.2","552","Cda. F.F.C.C. de Cuernavaca 780-Planta Baja","Miguel Hidalgo, Ciudad de México","Cd. de México","MX","https://constelacafe.com/",,"Cafetería","https://www.google.com/maps/search/?api=1&query=Constela%20Caf%C3%A9&query_place_id=ChIJqdJVCMED0oURmRa4ChFbQ7k"
"https://lh3.googleusercontent.com/gps-cs-s/AC9h4nqrgACs6fhRoY8h_dh7UkQwPaLVaVK8Mp28NHSZWqdR-xAaxnQbLpWd93wxXtqvlVMUmia62AgCpiJHXdEKkfqxsmHLC47UxEy1VC0K-KIPqqrnsWVHWis9_-0j8B246EPggBM8TQ=w408-h544-k-no","Chiquitito Café","4.4","534","Avenida Prado Norte 421","Miguel Hidalgo, Ciudad de México","Cd. de México","MX","http://www.chiquititocafe.com/","+52 55 5919 4374","Cafetería","https://www.google.com/maps/search/?api=1&query=Chiquitito%20Caf%C3%A9&query_place_id=ChIJh7SjMPUB0oURAsxw-bwm_zs"
"https://lh3.googleusercontent.com/gps-cs-s/AC9h4nqqztzm5vOawr63fr9ekQ1xxp_uqE8JHbHdZjPp9vDxAj2G5r5MYjjYZPKs1Gu24LmwiIf7UpB2SveFEiAblUMUTwegSPJRGBMlbbpD0nJodZnClrcVUE5_aTeFwt53GYd8dGQ=w426-h240-k-no","Cafetería La Cabaña","4.3","566","Playa Sur 20","Iztacalco, Ciudad de México","Cd. de México","MX","https://www.facebook.com/CAF%C3%89-LA-CABA%C3%91A-117833976074","+52 55 5579 3896","Cafetería","https://www.google.com/maps/search/?api=1&query=Cafeter%C3%ADa%20La%20Caba%C3%B1a&query_place_id=ChIJqXmiclz-0YURvIk89Hfrs-8"
"https://lh3.googleusercontent.com/p/AF1QipPH0gGSIxm-wzzfNRQxTJyM_iQmvv3y8reqkcKz=w408-h544-k-no","Cafetería Piso 73 (Cafetería de Barrio)","4.3","136","Elvira 50","Benito Juárez, Ciudad de México","Cd. de México","MX","http://www.piso73.com/","+52 55 5204 4317","Cafetería","https://www.google.com/maps/search/?api=1&query=Cafeter%C3%ADa%20Piso%2073%20(Cafeter%C3%ADa%20de%20Barrio)&query_place_id=ChIJHf_6n7n_0YURoYp7PwMVWks"
"https://lh3.googleusercontent.com/gps-cs-s/AC9h4np3pyWAcOGlfUdIiM_A-Fv829LKkchM7w8xaxYsDblPhXn3wusEhrER29JZrxO5wX6lSHqDFLHHENzlDAk_NzIrdfoHAI8-smeVrKK1BHboWerccYgFLxyYCqrFr7GsDe2Mscoshw=w408-h544-k-no","Piel Morena, Cafetería de Barrio","4.2","1772","Enrique Rébsamen 250","Benito Juárez, Ciudad de México","Cd. de México","MX",,"+52 55 5639 6821","Cafetería","https://www.google.com/maps/search/?api=1&query=Piel%20Morena%2C%20Cafeter%C3%ADa%20de%20Barrio&query_place_id=ChIJFQE81w__0YUR3DlnVR4YCwU"
"https://lh3.googleusercontent.com/gps-cs-s/AC9h4nqqMOymERXMtUgab7DvzUtOcavV7E70jG0_YOSlb2EQHoRLu8EwAJ9vx67ssRgx5St_YAw5npWMgnH4Ot3EW-578lDYd24Qx88y1z0L8yje1RelUnpkeJsf970MuRIX63WRyXY0=w408-h306-k-no","Café Emir","4.5","331","Avenida Prado Norte 365","Miguel Hidalgo, Ciudad de México","Cd. de México","MX","http://www.emircafe.mx/","+52 55 5520 4009","Cafetería","https://www.google.com/maps/search/?api=1&query=Caf%C3%A9%20Emir&query_place_id=ChIJ63T2EfUB0oUR9_VDQCqL41A"
"https://streetviewpixels-pa.googleapis.com/v1/thumbnail?panoid=8zT0OYz_vuisBsypynJmTw&cb_client=search.gws-prod.gps&w=408&h=240&yaw=208.17517&pitch=0&thumbfov=100","CASi cafeteria",,"0","Cda. de Veracruz 89","La Magdalena Contreras, Ciudad de México","Cd. de México","MX",,"+52 55 3924 4740","Cafetería","https://www.google.com/maps/search/?api=1&query=CASi%20cafeteria&query_place_id=ChIJWf5LSZb_zYUR2TIzcQnW-0k"
"https://lh3.googleusercontent.com/gps-cs-s/AC9h4np8pFZyNCA6w742pgwe9skDYvF0nedV-3PbsTVLbDeiqsyhvOA01qbSRwxUE2qAgMv4EleUtsrbsHI4hWAXCL7wuJYMAmWERc1rkDatlNBv5ALbhjCVVwwrOE2yw8QJAARdUPse=w408-h306-k-no","Cafeteria De La Facultad de Química","3.8","71","Interior","Coyoacán, Ciudad de México","Cd. de México","MX",,,"Cafetería","https://www.google.com/maps/search/?api=1&query=Cafeteria%20De%20La%20Facultad%20de%20Qu%C3%ADmica&query_place_id=ChIJUUrZmgMAzoURbCZAzYVyMDY"
"https://lh3.googleusercontent.com/gps-cs-s/AC9h4nr3GBPcRpKhpcYY0UifQqj2s0Atp7n5rkGHqoXYx9jnVMM8fm8ODPPF3c9ACJx4tcJ4rw4N0izU_aSsfOGm1hUKhX6BXbWrFjslq-hZbG3kLRDTAHpFtuzLGreibjdM5DXbmUnB=w426-h240-k-no","Cafetería las Islas","3.7","818","Escolar 3000","Coyoacán, Ciudad de México","Cd. de México","MX",,"+52 56 5835 3328","Cafetería","https://www.google.com/maps/search/?api=1&query=Cafeter%C3%ADa%20las%20Islas&query_place_id=ChIJ2cR0LwIAzoURPZQ5VuTgxSE"
"https://lh3.googleusercontent.com/gps-cs-s/AC9h4nrzMq5hOTcsk-kG2gHsfqcBscPIcMsYTNRg1kr_2kDvN-Z_hkQ3gm5MEZfEohlAb53Mwi5P3ODJ11IuFzkJEKUgN8qc6ZEnF7qiQlXxnaa3BS-TcL1n4GF7AScdRWmiv86Ab4_patbAs9U=w408-h306-k-no","Cafetería Carruselle","3.9","21","Enseñanza 57","Tlalpan, Ciudad de México","Cd. de México","MX",,,"Cafetería","https://www.google.com/maps/search/?api=1&query=Cafeter%C3%ADa%20Carruselle&query_place_id=ChIJUQo4YwABzoURMxUsIBWN6rA"
"https://lh3.googleusercontent.com/gps-cs-s/AC9h4npTTb6d6UkqLKSVu18VWwe1yMZtVwUJVg5oh9cP0a1aIm6FUr8MmeFX61qogcZ9cOMvh6vkmX8bnXMwWhho_GQ7qNtJ1HN_WtaXWyev9IWrck1OY2xYJBZQuplTqzvPLW2S7uQK_Q=w408-h306-k-no","La Panera Cafetería y Pan Artesanal","2.3","30",,"Tlalpan, Ciudad de México","Cd. de México","MX",,,"Cafetería","https://www.google.com/maps/search/?api=1&query=La%20Panera%20Cafeter%C3%ADa%20y%20Pan%20Artesanal&query_place_id=ChIJ-c45UdYBzoURCOVECC5VWsk"
"https://lh3.googleusercontent.com/gps-cs-s/AC9h4nq6noArRbrljvQ7KUgIMbLqm3KcHtnTwK2f_h60Gic_2OWBrEYm7sqxR3VpWpNJjTJN8GoxfCeQ8VxpyscU7Tt4364cmRS1gdO3_nkkZIEgRmmxZ7aX4-M-RGuXWzKoKTsUebkmDA=w408-h306-k-no","Librería del Fondo de Cultura Económica Elsa Cecilia Frost","4.5","1063","Ignacio Allende s/n","Tlalpan, Ciudad de México","Cd. de México","MX","http://www.fondodeculturaeconomica.com/","+52 55 5655 2997","Cafetería","https://www.google.com/maps/search/?api=1&query=Librer%C3%ADa%20del%20Fondo%20de%20Cultura%20Econ%C3%B3mica%20Elsa%20Cecilia%20Frost&query_place_id=ChIJYZk8918AzoURFDbL2MNZaWA"
"https://lh3.googleusercontent.com/gps-cs-s/AC9h4nr52n71MptE86VBUY8yDMMHyHPfZvShfdqtPfbACvDdMecTsgNh0284oTsnMCSmU313Zn67cYU8XFMwmG81lSfF_Ekl7J0UHaVgQlhcTGKyZ1KZnkIEigtYjtOYU6AkjZDzeArY=w408-h306-k-no","Parque de Trampolines Salón de fiestas infantiles Jumping Cafetería","4.5","349","C. Chichimecas 518","Coyoacán, Ciudad de México","Cd. de México","MX",,"+52 55 1765 9421","Servicio de fiestas infantiles","https://www.google.com/maps/search/?api=1&query=Parque%20de%20Trampolines%20Sal%C3%B3n%20de%20fiestas%20infantiles%20Jumping%20Cafeter%C3%ADa&query_place_id=ChIJFTHfY0AAzoURKdXyTX7nusU"
"https://streetviewpixels-pa.googleapis.com/v1/thumbnail?panoid=CovqcocPRzlVlKlsRdHRsA&cb_client=search.gws-prod.gps&w=408&h=240&yaw=127.53779&pitch=0&thumbfov=100","Cafetería Alimentos preparados","4.5","2","Av Renato Leduc 191","Tlalpan, Ciudad de México","Cd. de México","MX",,"+52 55 5424 0621","Restaurante","https://www.google.com/maps/search/?api=1&query=Cafeter%C3%ADa%20Alimentos%20preparados&query_place_id=ChIJtwXbcVkAzoURSB7wg-_eTSQ"
"https://lh3.googleusercontent.com/p/AF1QipO2Ah0xXApNDAxMxqRxdmCFLFL_e7u71beCj7tz=w408-h408-k-no","Cafetería Veintidós","3.5","2","Sinanche 401","Tlalpan, Ciudad de México","Cd. de México","MX",,,"Cafetería","https://www.google.com/maps/search/?api=1&query=Cafeter%C3%ADa%20Veintid%C3%B3s&query_place_id=ChIJY0VFrnn_zYURNKkv1M9MS4Q"
"https://streetviewpixels-pa.googleapis.com/v1/thumbnail?panoid=J2VIfvbAR69tsw2nALAnMw&cb_client=search.gws-prod.gps&w=408&h=240&yaw=169.31813&pitch=0&thumbfov=100","Cafetería Filosofía y Letras","2.6","19",,"Coyoacán, Ciudad de México","Cd. de México","MX",,,"Restaurante","https://www.google.com/maps/search/?api=1&query=Cafeter%C3%ADa%20Filosof%C3%ADa%20y%20Letras&query_place_id=ChIJ_a57tAEAzoURmUbaXtHw3yY"
"https://lh3.googleusercontent.com/gps-cs-s/AC9h4np7m7DuEPRFj8HzMbfp5jappYjBjQQOijIskSJ6nndRWNXdzeP1yvBwmTh7zqipEbAwnyhihzSFtDCTxPs_-3DO51KkEPFuQ6UDV_EJwA9Wdsosap3fKy4cdgcTZ9rif_2xbHmJZ39CXOs=w408-h544-k-no","Cafeteria de la unidad de posgrado","2.4","13","Cto. de los Posgrados S/N","Coyoacán, Ciudad de México","Cd. de México","MX",,,"Cafetería","https://www.google.com/maps/search/?api=1&query=Cafeteria%20de%20la%20unidad%20de%20posgrado&query_place_id=ChIJP2SdD6oBzoURxKw4ug7Or7g"
"https://lh3.googleusercontent.com/gps-cs-s/AC9h4npQ2QlGDt3dudcP7iRHeRB1qw32c2Wt5WrHSXuWPR--TyARpvIqLQMJ39PZ1agR3L-EyZqe-6LiqVFwNeSVDz21nMziiaNmo3GjC9Ucd7PpUSR4CodsPWu32T7xOYefO9PX3IVo=w408-h814-k-no","Cafetería ""La terraza del investigador""","3.7","3","Av Cd Universitaria 301","Coyoacán, Ciudad de México","Cd. de México","MX",,,"Cafetería","https://www.google.com/maps/search/?api=1&query=Cafeter%C3%ADa%20%22La%20terraza%20del%20investigador%22&query_place_id=ChIJUcPwOmr_zYURBZMdDmsxA9E"
"https://lh3.googleusercontent.com/p/AF1QipP5PBWUDe-xJVjGfq3C8Rh363z1iDW-3hLp2BK6=w408-h266-k-no","Cafetería Franco",,"0","Hopelchén","Tlalpan, Ciudad de México","Cd. de México","MX",,"+52 56 5535 7780","Cafetería","https://www.google.com/maps/search/?api=1&query=Cafeter%C3%ADa%20Franco&query_place_id=ChIJ9UysTa3_zYURhqzSQvS9fXU"
"https://streetviewpixels-pa.googleapis.com/v1/thumbnail?panoid=0aeU3h8vPaBXiX6c21ZjcQ&cb_client=search.gws-prod.gps&w=408&h=240&yaw=223.26578&pitch=0&thumbfov=100","CAFETERIA DE LUCIO'S",,"0","Ferrocarril de Cuernavaca","Tlalpan, Ciudad de México","Cd. de México","MX",,,"Cafetería","https://www.google.com/maps/search/?api=1&query=CAFETERIA%20DE%20LUCIO'S&query_place_id=ChIJWZsLxlr-zYURFtJ_O_NMkU0"
"https://streetviewpixels-pa.googleapis.com/v1/thumbnail?panoid=xLmn09E41DhIVrjXKQFm-Q&cb_client=search.gws-prod.gps&w=408&h=240&yaw=149.08664&pitch=0&thumbfov=100","Cafetería alices","3","2","C. Durango 30","La Magdalena Contreras, Ciudad de México","Cd. de México","MX",,,"Cafetería","https://www.google.com/maps/search/?api=1&query=Cafeter%C3%ADa%20alices&query_place_id=ChIJ816ATon_zYURz0SrfQ3P10s"
"https://streetviewpixels-pa.googleapis.com/v1/thumbnail?panoid=yiCHtp-vDK6stDUUbcF5wQ&cb_client=search.gws-prod.gps&w=408&h=240&yaw=253.36224&pitch=0&thumbfov=100","Cafeteria DXN Dulcinea","3.5","6","Tejamanil 261","Coyoacán, Ciudad de México","Cd. de México","MX",,"+52 55 6491 2462","Cafetería","https://www.google.com/maps/search/?api=1&query=Cafeteria%20DXN%20Dulcinea&query_place_id=ChIJ9-wsMhYAzoUR0Wvn_wMHWwk"
"https://streetviewpixels-pa.googleapis.com/v1/thumbnail?panoid=7NySrzZ76snpGSWxiUOxqQ&cb_client=search.gws-prod.gps&w=408&h=240&yaw=24.84721&pitch=0&thumbfov=100","YuKi Cafetería y más...",,"0","Soledad","Álvaro Obregón, Ciudad de México","Cd. de México","MX",,,"Cafetería","https://www.google.com/maps/search/?api=1&query=YuKi%20Cafeter%C3%ADa%20y%20m%C3%A1s...&query_place_id=ChIJITX7zPwB0oURCYq4z0K61gA"
"https://streetviewpixels-pa.googleapis.com/v1/thumbnail?panoid=5NiSdZi6KrtERz6Nn21ypQ&cb_client=search.gws-prod.gps&w=408&h=240&yaw=351.69766&pitch=0&thumbfov=100","Preparacion de alimentos para una marca de cafeteria",,"0","Esquina Camilpa, Av. Pedro Henríquez Ureña","Coyoacán, Ciudad de México","Cd. de México","MX",,,"Cafetería","https://www.google.com/maps/search/?api=1&query=Preparacion%20de%20alimentos%20para%20una%20marca%20de%20cafeteria&query_place_id=ChIJgydQVwABzoURnq-GUH9WdXs"
"https://lh3.googleusercontent.com/p/AF1QipNPR4bgZKF961oKxy8AXxSWyWTmGKfndOza92cG=w960-h240-k-no","Cafetería El Sonoro",,"0","Luis Echeverría Álvarez 120-Local 39","Tlalpan, Ciudad de México","Cd. de México","MX",,"+52 56 4152 9174","Cafetería","https://www.google.com/maps/search/?api=1&query=Cafeter%C3%ADa%20El%20Sonoro&query_place_id=ChIJ3T34Csf_zYURT8XAZN70Ipw"
"https://lh3.googleusercontent.com/p/AF1QipNjcy8uW0E4y9YYi59DwuNZEwcpTxM9pxeGyrK1=w426-h240-k-no","Cafeteria playa del carmen","4.9","7","Antigua, Subida a San Bernabé 5","La Magdalena Contreras, Ciudad de México","CDMX","MX",,"+52 55 3589 7192","Cafetería","https://www.google.com/maps/search/?api=1&query=Cafeteria%20playa%20del%20carmen&query_place_id=ChIJn-SNRNf_zYURy52ZyfaW_wI"
"https://lh3.googleusercontent.com/gps-cs-s/AC9h4nrvoeS5Da_-itL0tJfiFck2z0QGQfQ8XCiWIUOjYH2rS2gBpO3cl5WDuRd60OnVP6-8jl9HmTT2xYyimsw33M_4pXMU1veyzDFlU9vbJeMPkBbDNzXpumbV238gJN8TD3h8zOh5Aw=w408-h544-k-no","Cafeteria CAMYFER","4.8","5","C. Ayle manzana 124-lote 11","La Magdalena Contreras, Ciudad de México","Cd. de México","MX",,"+52 55 4016 3469","Cafetería","https://www.google.com/maps/search/?api=1&query=Cafeteria%20CAMYFER&query_place_id=ChIJVWc8EBb_zYUR0hkZ-ifg4fc"
"https://lh3.googleusercontent.com/gps-cs-s/AC9h4nopJ1Oaqm0q_IH4x316dAOmu3DuU5TTL_cMOFBP2FOlW5rks3bR9TAtYNE9fsbdn1gOmMZL6kf7XOZFMXeBonmwgncpZFsklseRgtRoTLDjsnfIYc06ra3c1IijxzT9qcCtJsPI=w408-h544-k-no","CAFETERÍA AJUSCO","4.7","11","Amatenango 13-14","Tlalpan, Ciudad de México","Cd. de México","MX",,"+52 55 1194 7033","Cafetería","https://www.google.com/maps/search/?api=1&query=CAFETER%C3%8DA%20AJUSCO&query_place_id=ChIJzQgN71n_zYURJAR6bC_hF28"
"https://lh3.googleusercontent.com/p/AF1QipOsgPUzzZ0S0g4l0yNwhLM7tiVf4KrUl0-VVLCk=w408-h861-k-no","Cafetería Corazón Contento","4.9","14","C. 12 Ote. Manzana 17-Lote 5","Tlalpan, Ciudad de México","Cd. de México","MX",,"+52 55 2495 7661","Cafetería","https://www.google.com/maps/search/?api=1&query=Cafeter%C3%ADa%20Coraz%C3%B3n%20Contento&query_place_id=ChIJcUDhx0YBzoUR_AnPjOhAP7s"
"https://lh3.googleusercontent.com/p/AF1QipOtvgtoPZfS0_j0AjN3vQjT4wUvbPKeS9sWlXFq=w408-h544-k-no","Cafetería y Restaurant Lunero","4.2","12","C. John F. Kennedy 9","Tlalpan, Ciudad de México","Cd. de México","MX",,"+52 55 7692 4903","Cafetería","https://www.google.com/maps/search/?api=1&query=Cafeter%C3%ADa%20y%20Restaurant%20Lunero&query_place_id=ChIJdcvaDHIBzoURFHHmBrvParw"
"https://lh3.googleusercontent.com/p/AF1QipNkViM109j7y2dbuHpEEOF9K94cLCgEp6sQXipi=w408-h544-k-no","Cafeteria MEPAVI","5","11","14630 Calle, Del Duque","Tlalpan, Ciudad de México","CDMX","MX",,"+52 55 1905 8812","Cafetería","https://www.google.com/maps/search/?api=1&query=Cafeteria%20MEPAVI&query_place_id=ChIJke2TvK8BzoURT6DFOOqf9Po"
"https://lh3.googleusercontent.com/gps-cs-s/AC9h4npZb1dxQ9tEOxfOVZwD4Jq0nHpolKAPXJUTOl2JzxY9_KQl03-cr45L_G_0X5QDv1rVHzhaJJR6LaGy1-reHhWtgRGOMkbe8OD52Z0RI6k-jhlk9NcgcQWfWdx49mAS-kU7jjE=w426-h240-k-no","Cafeteria Sesi Jasi","4.3","15","Miramontes L-2","Tlalpan, Ciudad de México","Cd. de México","MX",,"+52 55 8225 7295","Cafetería","https://www.google.com/maps/search/?api=1&query=Cafeteria%20Sesi%20Jasi&query_place_id=ChIJMfLrRJz_zYURq9HRDWa1jI4"
"https://lh3.googleusercontent.com/p/AF1QipM8njVFP92vRijOZkOoE58D7WZlfgAJhshkgR3C=w408-h337-k-no","Cafetería Koru","5","3","Seye 212, entre Halacho y Tenosique","Tlalpan, Ciudad de México","Cd. de México","MX",,"+52 55 7704 3853","Cafetería","https://www.google.com/maps/search/?api=1&query=Cafeter%C3%ADa%20Koru&query_place_id=ChIJVb6je_D_zYUR6PaUtydzUtM"
"https://lh3.googleusercontent.com/p/AF1QipOBnnCaxKU4Yf6TWKJfVGIVje_TkrI-ngsXRzz4=w877-h240-k-no","Paletería y cafetería Otirev","5","3","Ampliación miguel hidalfo 3ra sección Mzn 127 lotr 941","Tlalpan, Ciudad de México","CDMX","MX",,"+52 55 4647 3397","Cafetería","https://www.google.com/maps/search/?api=1&query=Paleter%C3%ADa%20y%20cafeter%C3%ADa%20Otirev&query_place_id=ChIJ7_9RZyn_zYURpIVlUM41qFk"
"https://lh3.googleusercontent.com/gps-cs-s/AC9h4nq4fcFdwk1uUrcse7SDMroIpokYhWNeEQm1ArrjeM53vtSbnC6nRezzjQlugpaWAKXSJdQBgNavYUkrbNGd6ey4q6W0N7sfLuitJuo9MlHqAT_XEuGx1S_e9QNRMVmr6RmIht4h=w532-h240-k-no","Zafirob Cafetería","4.7","6","Av. Insurgentes Sur 3733-LOCAL D","Tlalpan, Ciudad de México","Cd. de México","MX",,"+52 55 5424 4914","Cafetería","https://www.google.com/maps/search/?api=1&query=Zafirob%20Cafeter%C3%ADa&query_place_id=ChIJcw2ZCRoBzoURONYfxBCqhhg"
,"Kin Cafetería",,"0",,,,,"https://kin-cafeteria.ueniweb.com/?utm_campaign=gmb","+52 55 6730 8021","Comedor escolar","https://www.google.com/maps/search/?api=1&query=Kin%20Cafeter%C3%ADa&query_place_id=ChIJKcyPQ0L_0YURPX0-j1raQlk"
"https://streetviewpixels-pa.googleapis.com/v1/thumbnail?panoid=r5qXb1I7GAVCzgAUyQOkdw&cb_client=search.gws-prod.gps&w=408&h=240&yaw=55.37306&pitch=0&thumbfov=100","Cafetería Malva","4","3","Malva 2","La Magdalena Contreras, Ciudad de México","Cd. de México","MX",,"+52 55 6453 1981","Cafetería","https://www.google.com/maps/search/?api=1&query=Cafeter%C3%ADa%20Malva&query_place_id=ChIJ17s91dn_zYURzSrIG1g5IF4"
"https://lh3.googleusercontent.com/gps-cs-s/AC9h4nolQyFRfgSHBukZ2pjQI5NClC6nt88KhHNfhNfz2YsnFZzv7v0j2NFLoI_rBenXDeLW_zAipvSYsaddAkO3V_lPEWPHwQoCaU2GUAEGiuNETUfYRJtEJKjgJo6YS4IlM96FguS9qQ=w408-h306-k-no","Cafetería","2.8","4","C. Tejocotes 12-14","La Magdalena Contreras, Ciudad de México","Cd. de México","MX",,"+52 55 8009 8681","Cafetería","https://www.google.com/maps/search/?api=1&query=Cafeter%C3%ADa&query_place_id=ChIJa-bn9V3_zYURUqhKAi1rgBY"
"https://lh3.googleusercontent.com/gps-cs-s/AC9h4nr9s9Y3nQb8PH8CGr_inrZ6_hlhxD6BNBTsqgJNdYw3zlqnUJWpdzeQ0oZmecxKPzr8N7Pg2HyLmBEGT7ndArNOyb7fT6WxJmtShV38ynHAvyUux35P47e1qItps649Wcag89dM=w426-h240-k-no","Cafetería Rosa Blanca","4.2","1156","Rosa Blanca 154","Álvaro Obregón, Ciudad de México","Cd. de México","MX",,"+52 55 5680 6647","Cafetería","https://www.google.com/maps/search/?api=1&query=Cafeter%C3%ADa%20Rosa%20Blanca&query_place_id=ChIJ64Thvy8A0oURpWE23nlYNaE"
"https://lh3.googleusercontent.com/gps-cs-s/AC9h4nocRrLHFkPQUVG_AtIovDWCq8HdugJYTzKtc_7SRTgPz99oH7Om-OLnYO7yXOe8pHV9AjLlKecxICiWEwj7PNbpoKluHO9zflV93rYJ44pMGxCGb7F1rKPYZtYH2QSzJ4uHAkU_DA=w408-h306-k-no","Cafeteria el Actuario","4.3","285","C. Dr. Lucio 138","Cuauhtémoc, Ciudad de México","Cd. de México","MX",,"+52 55 3463 5063","Cafetería","https://www.google.com/maps/search/?api=1&query=Cafeteria%20el%20Actuario&query_place_id=ChIJL2q7b1j_0YURDNfcJf7Rx5c"
"https://lh3.googleusercontent.com/gps-cs-s/AC9h4nqBA9zkLmShhgzQoAJd7_8QnkReC5_M_trp9VWZ5iUHxTaSVuRFvIVMd0FGlC6CSr7iaQPk32RXmbtD8t6WxRO5wmosyQlvX_rRhQDICgI_6ZhDyeNLARNYtqg0k-uFsAEK_Jf1jA=w408-h430-k-no","Cafetería - Heladería - Amareki - Jamaica","4.7","144","Torno 135-B 2","Venustiano Carranza, Ciudad de México","Cd. de México","MX","https://amareki.com/","+52 55 7143 0682","Restaurante","https://www.google.com/maps/search/?api=1&query=Cafeter%C3%ADa%20-%20Helader%C3%ADa%20-%20Amareki%20-%20Jamaica&query_place_id=ChIJ2QY2uTf_0YUR79GkMl2Joeo"
"https://lh3.googleusercontent.com/gps-cs-s/AC9h4nqErujWvNgq70JgZv9O9kAmf_r8i_SZAdPG6__tQWMePbSFFg9QftO_RetmldE91tStTqohgOiiV89SjhkmM2nhbaqj2r7dR2B5wPqFV4vAIP0i-aBKo2NXgCaxxFN5trkiebiQeg=w408-h408-k-no","Citron Cafeteria","4.1","548","Colima 323-Local B","Cuauhtémoc, Ciudad de México","Cd. de México","MX","http://citronmx.myshopify.com/","+52 55 6774 6405","Cafetería","https://www.google.com/maps/search/?api=1&query=Citron%20Cafeteria&query_place_id=ChIJ0-M_577_0YURR0qIIVNF1og"
"https://lh3.googleusercontent.com/gps-cs-s/AC9h4npl4vYLY7LuGkbWltCfwSn8JIvUks4aOjLvhR5NTs4OsVCBDYIb8m4PZFWZPhnSgxZOsOzNN9lLWCLNCB7ijrgqDr4uwHlCNpVhsI3dTsMTupcVTXlla2EoFT5Kp10jXr-Ub-I=w408-h306-k-no","Café Bo","4.4","222","Av. Ejército Nacional Mexicano 613","Miguel Hidalgo, Ciudad de México","Cd. de México","MX","http://www.cafebo.com.mx/","+52 55 2624 0348","Cafetería","https://www.google.com/maps/search/?api=1&query=Caf%C3%A9%20Bo&query_place_id=ChIJFT5mkAYC0oURHJ2ITNQUqOs"
"https://lh3.googleusercontent.com/gps-cs-s/AC9h4npjRJbrlfcAVIs7uc1cq9t7-RnsGUj2TxFJgBPsPGMeUw66VCBvl56ReL5gh1gnXKQSkRNk-hC0wB0BzYIAUdVZmyQyPvXfwwt0bo3aXemX7Kg_0frAw4ZsBAPo1D936VTEOrk=w408-h516-k-no","Café Tilia | Cafetería de Especialidad","4.3","367","Colima 226","Cuauhtémoc, Ciudad de México","Cd. de México","MX",,"+52 55 2950 5299","Restaurante","https://www.google.com/maps/search/?api=1&query=Caf%C3%A9%20Tilia%20%7C%20Cafeter%C3%ADa%20de%20Especialidad&query_place_id=ChIJ529JCQn_0YURGinolNaEwpQ"
"https://lh3.googleusercontent.com/gps-cs-s/AC9h4nr0hgVIpndGR6ngNmGvp7OdanInS1xKzOkEJCliZMD6wy0jbIxTDA2DFCH4DMEcH8N_EGTNv96blLoqaLtGW_XH4aXAsQ9DOgNTaCJqSqw0FKS4MCZABAGOJ0RbbT7xeclDTYSV=w426-h240-k-no","Cafetería Dos De Azúcar","4.3","855","Av Tesoro 136","Gustavo A. Madero, Ciudad de México","Cd. de México","MX","https://www.facebook.com/carlosmeccalco/?ref=ts&fref=ts","+52 55 1114 9925","Cafetería","https://www.google.com/maps/search/?api=1&query=Cafeter%C3%ADa%20Dos%20De%20Az%C3%BAcar&query_place_id=ChIJ0SeremL50YURNrgA5kIuL-4"
"https://lh3.googleusercontent.com/gps-cs-s/AC9h4noz-ge72MgwjtjED5c1c34eBANpXkwQjWAZBbNZFkBg7Hi9Hz7rTkGtbUo-44a1E5aPnaP2iJGe5v6OQyQ-Zeyn-tzjkutDK6Ia4mOWgsmwY9d07vbV_hvUUczkhv3pCkWqOsDmAg=w408-h306-k-no","Pastelería | Panadería | Cafetería Muguet Polanco","4.3","677","Av. Isaac Newton 139 B","Miguel Hidalgo, Ciudad de México","Cd. de México","MX","http://www.muguet.com.mx/","+52 55 4430 8989","Cafetería","https://www.google.com/maps/search/?api=1&query=Pasteler%C3%ADa%20%7C%20Panader%C3%ADa%20%7C%20Cafeter%C3%ADa%20Muguet%20Polanco&query_place_id=ChIJoUvDjqr40YURM1W7UWovMdM"
"https://lh3.googleusercontent.com/gps-cs-s/AC9h4noI1LInhOD9Hxdwi02Cvd20bQjUzKidHE8j8gVkmjverv4Bd2OaATZKBDpVZYhzUHMEiGyUy6n4NaMxd88yxrc0iuvCYfKDfpu8WuTbAomBgA92o1RNS2ZXXOYDNrqhaXaWB6tF=w408-h306-k-no","Germina Nápoles: Cafetería, Sandwiches & Bagels, Tienda a Granel","4.8","94","Nebraska 195","Benito Juárez, Ciudad de México","Cd. de México","MX","https://napoles.germina.love/","+52 55 4733 8877","Cafetería","https://www.google.com/maps/search/?api=1&query=Germina%20N%C3%A1poles%3A%20Cafeter%C3%ADa%2C%20Sandwiches%20%26%20Bagels%2C%20Tienda%20a%20Granel&query_place_id=ChIJA8ff12n_0YURVDcEOkIUego"
"https://lh3.googleusercontent.com/gps-cs-s/AC9h4nrqFVOUV6qdnc0yBcJlvaGMPyufkssuh3DuCH_vUOUn6xD-CjtSi1C_Votb7Q47GHLAw2jiq0EnkXGWAeQgIEYbiN0YD_qJ8XbCCyp2rKEHIULeOp5Jr6LwU56hBTsKxyNM-x7OQg=w408-h306-k-no","El Otro Café","4.5","815","Shakespeare 78","Miguel Hidalgo, Ciudad de México","Cd. de México","MX","http://www.otrocafe.mx/","+52 55 2624 3464","Cafetería","https://www.google.com/maps/search/?api=1&query=El%20Otro%20Caf%C3%A9&query_place_id=ChIJP0BEDU3_0YUR8Nnuzr_NvhM"
"https://lh3.googleusercontent.com/gps-cs-s/AC9h4nqT9rRTRBSlDmiwY_cdWzKgbZNbvEW7LK1mgoBAzpGASCI2naeJqtdRQf5a5XP0YFUio-Tek5JzmeDYO1B0kj7FHjKFQbHwBugi9UhgBZ4nRUdTArxH6S49NBO7Ualbe01PTArXoA=w408-h306-k-no","Cafe 60","4","200","Mar Arafura 60","Miguel Hidalgo, Ciudad de México","Cd. de México","MX","http://www.arafura.mx/","+52 55 3099 7592","Cafetería","https://www.google.com/maps/search/?api=1&query=Cafe%2060&query_place_id=ChIJyff41-j50YURODXdAQ7dXbw"
"https://lh3.googleusercontent.com/gps-cs-s/AC9h4npri1L5ol8Od625Mt7V3oOk7sC1W05f1vWKmmurZ4vC0SVdJ0YCq1uftyW6foW0eF6ljvsYajDu1qkOD4sWwAnJwc0hNm4Kgbpt6KkU7VOzO2EaRL_Bfsxy2EehkLNfPdNfURg=w408-h306-k-no","Cafetería Bella","4.4","171","Av Arcos de Belén 55","Cuauhtémoc, Ciudad de México","Cd. de México","MX",,"+52 55 6303 1282","Cafetería","https://www.google.com/maps/search/?api=1&query=Cafeter%C3%ADa%20Bella&query_place_id=ChIJVVWZGir_0YURoNo00gLCIFg"
"https://lh3.googleusercontent.com/gps-cs-s/AC9h4noxTTW3bozwc6rFnauI1yeyFP-LQqAIL0UpkEXW3QpCA4cjRXieAuxA0PZS3uar9V5J1QDSQnKlkjAkrifJ-14ytbZBiVkTZVTkm0-ECJmRpmnE8fpeoarPp-2pLE_J0_o_ye07BQ=w408-h544-k-no","Cafetería Eclipse","4.7","25","Blvd. Miguel de Cervantes Saavedra 13","Miguel Hidalgo, Ciudad de México","Cd. de México","MX","http://www.facebook.com/eclipsecoffe",,"Cafetería","https://www.google.com/maps/search/?api=1&query=Cafeter%C3%ADa%20Eclipse&query_place_id=ChIJDeYOCoUD0oURQlqVefoOeaM"
"https://lh3.googleusercontent.com/gps-cs-s/AC9h4nqOjmCMrP0lvzuRJg1YlNjwc25GordnANtelpNB5jp0IIMHyWccpncv7Zxkyq3Kuof6r_gPlXGtNwRVtMwq95S7ZMRelaB-GP-NYAXYR3YOOlEhxREowuOeUBn58KkVr2yxmA_b=w408-h544-k-no","Sora Cafetería y Repostería","4.4","183","Guanajuato 62","Cuauhtémoc, Ciudad de México","Cd. de México","MX","https://sora.com.mx/","+52 56 4432 9847","Cafetería","https://www.google.com/maps/search/?api=1&query=Sora%20Cafeter%C3%ADa%20y%20Reposter%C3%ADa&query_place_id=ChIJbykxKhr_0YUR_vA15rAkHLA"
"https://lh3.googleusercontent.com/gps-cs-s/AC9h4nqr1cNZ51pV2wa4QTpuBKfjfzJxtrbkaz-QfxCtg5y8EakX8y-X96c-bEbkNzPqkSrCwckWrIB3Eb61ZRPOnLdaF5cExx_W2jpzfio9bEMjVuMnwCuBAjQfBQ9S26Ls5pnkSlnMpA=w408-h306-k-no","Cafeteria Manjar","4.4","181","Calle Av. Dos 139","Benito Juárez, Ciudad de México","Cd. de México","MX",,"+52 55 5035 8627","Cafetería","https://www.google.com/maps/search/?api=1&query=Cafeteria%20Manjar&query_place_id=ChIJBZDBjnv_0YURO6j_Vb-ceUI"
"https://lh3.googleusercontent.com/p/AF1QipM0W4iLGOX3N9rfUj5aZzGEUcainxI4qnk-CVBd=w408-h543-k-no","Cafetería y Panadería Luz de Luna","4.9","14","5 de Febrero 1080-local 3","Benito Juárez, Ciudad de México","Cd. de México","MX",,,"Cafetería","https://www.google.com/maps/search/?api=1&query=Cafeter%C3%ADa%20y%20Panader%C3%ADa%20Luz%20de%20Luna&query_place_id=ChIJHzBGkrT_0YURTKEjAFXSvjY"
"https://lh3.googleusercontent.com/gps-cs-s/AC9h4nqIXEgBfFDfyTp2tCiicsKM3NkadpLBLvr9YH2MpdDb-3gZh9MvwAW1NRy-FDS8kdnNAWy89eVLc4ZdW-Bl-ZhFTj8Y6WkJLnQS4vlUApCenFZY-2pTwIU8xGp3WaPavPDGsGOjmg=w408-h306-k-no","Café Colibrí","4.1","768","Calle Salvador Díaz Mirón 370","Miguel Hidalgo, Ciudad de México","Cd. de México","MX",,"+52 55 8437 9658","Cafetería","https://www.google.com/maps/search/?api=1&query=Caf%C3%A9%20Colibr%C3%AD&query_place_id=ChIJMaK24b740YURwF9XQ417_ZI"
"https://lh3.googleusercontent.com/gps-cs-s/AC9h4nrDSycy7gnjat5ePzbWwVRmgRGJ4j51hwpjVJmcmAAEqjstUSlHolJ921o8gvc_RUe0EQsblmjm6ru_MQ5wqE_Ud1Jzw9TgjHHi9OnoT8mYvsxuAW7MImHCZ1wIPy4pPr6XArOHsg=w408-h724-k-no","Querido Cosmos","4.8","24","C. Lago Mayor 82A","Miguel Hidalgo, Ciudad de México","Cd. de México","MX","https://www.instagram.com/queridocosmosmx?igsh=b3JsbGZ6bHQwcnVk&utm_source=qr","+52 281 870 7780","Cafetería","https://www.google.com/maps/search/?api=1&query=Querido%20Cosmos&query_place_id=ChIJoSY0p0f_0YURl2KNCBzVU6w"
"https://lh3.googleusercontent.com/gps-cs-s/AC9h4nosyryMVN9bwJzih0xZAZeHfVlGVd1WhBzMm3FHm9z2o5M8k5jWJY97UnNCzaigUg5iihQpFvQRsuYqiplnhPAtSiYm5AXCEglMMyHw2U_E5r2nmzwPI9BNY3OtGNzZySmXMPo=w408-h544-k-no","Cafeteria Vidda Mia","4.7","139","Av Lago 22","Benito Juárez, Ciudad de México","Cd. de México","MX","https://www.facebook.com/CafeteriaViddaMia/","+52 55 7155 3309","Cafetería","https://www.google.com/maps/search/?api=1&query=Cafeteria%20Vidda%20Mia&query_place_id=ChIJrWCWb0j_0YURutji-ZIqRKI"
"https://lh3.googleusercontent.com/gps-cs-s/AC9h4nqvKc5jfTWv14WgBVhw-cG8FSVeBG6-1owUF7FcvfXlpPL2dZKu7Vq_q3jCKtcsRPlDaFanw1I1bsQPHHOWgW-ayBYnbqReH_-Y4NnHGpNB6ST_wicP-s8TzMT_sWP4VhQQdvE=w425-h240-k-no","Café Teresita","4.5","23","Calz México-Tacuba 1058","Miguel Hidalgo, Ciudad de México","Cd. de México","MX",,,"Cafetería","https://www.google.com/maps/search/?api=1&query=Caf%C3%A9%20Teresita&query_place_id=ChIJ-12vNYwD0oURur4Bh580OCQ"
"https://lh3.googleusercontent.com/gps-cs-s/AC9h4nom_48l9Ac2ZjVGNLQUTPDdOtkaVRRW5r7UNytLawsLWugWw_2Cp9SMI799hhTXHbg_lJ2hvD2W9Qjnx_QgG_-7un7qqa5dVfwaGYLMRV0TsHOnzIOBXz3-KLszaZtvR9_MxpGSkQ=w408-h306-k-no","Cafetería kaldi","4.9","27","Av Lago 64","Benito Juárez, Ciudad de México","Cd. de México","MX",,"+52 55 7413 7634","Cafetería","https://www.google.com/maps/search/?api=1&query=Cafeter%C3%ADa%20kaldi&query_place_id=ChIJBZMCV07_0YUR-_ZVpd5uIwM"
"https://lh3.googleusercontent.com/gps-cs-s/AC9h4no8beAj3TSiF03LL_VLLXCpVv4RQxPryfc3wcnz0yXErBs3uvIXavQvnvjJgXtcXb35QCeaNtbv-TWI7Ewqhag-enEM2bL-F1zxckOjUNmGRlO0NIgcJ_A1Fr_Y_QzfXSoyzmAB=w408-h306-k-no","Calixto café con-sentido CDMX","4.1","206","Blvd. Miguel de Cervantes Saavedra 251, Amp. Granada, Miguel Hidalgo, Nuevo Polanco","Miguel Hidalgo, Ciudad de México","CDMX","MX","https://instagram.com/calixtocafe_mx?igshid=M2RkZGJiMzhjOQ==","+52 55 9343 0758","Cafetería","https://www.google.com/maps/search/?api=1&query=Calixto%20caf%C3%A9%20con-sentido%20CDMX&query_place_id=ChIJ6ZsgLUED0oURRvFf8oEtkBw"
"https://lh3.googleusercontent.com/gps-cs-s/AC9h4nqeikXjFTq2drHLHfAUXN2r2QQyk9P9tCYpv5RpGf_XinJxJD5gGg1xcBE7kyBBc4uHUmkLqhY8LBT2n_REhhAhkWaHkQicyXtrZb11GV4FYM6oCEfg6gVqcXE3gKb_71sv3yQmZw=w408-h306-k-no","Cleotilde Barra de Café Escandón","4.6","299","Av Progreso 240","Miguel Hidalgo, Ciudad de México","Cd. de México","MX","https://www.facebook.com/cleotilde.cafemx",,"Cafetería","https://www.google.com/maps/search/?api=1&query=Cleotilde%20Barra%20de%20Caf%C3%A9%20Escand%C3%B3n&query_place_id=ChIJbQBAiWv_0YURDG72jU38C98"
"https://lh3.googleusercontent.com/p/AF1QipMo5x3lx_Xxm4bJDFVAtJvaELmKVK48D-4BmDnY=w442-h240-k-no","Cafetería Laplace","5","30","Canela, 3er. And. Canela 616 Esquina","Iztacalco, Ciudad de México","CDMX","MX",,,"Cafetería","https://www.google.com/maps/search/?api=1&query=Cafeter%C3%ADa%20Laplace&query_place_id=ChIJS69ktaD90YUR7nUFKoDTipo"
"https://lh3.googleusercontent.com/gps-cs-s/AC9h4nqr8P9TDbu8gqrxHs-925LUjsfF3fknu7mz1P8BQKGjXoFRLWRyXVJFUxfR4FQYc2cX9ZSMrARTzMg3Cbsqvz7LUQB6kBn7KvkHcRjfCdsZz8QQ6Oc2AQHLfSsijav_k2Jn1aW2xtbP9ClB=w408-h290-k-no","Cafeteria, el rinconcito del andador","5","2","Playa Manzanillo 514-Local C","Iztacalco, Ciudad de México","Cd. de México","MX",,,"Cafetería","https://www.google.com/maps/search/?api=1&query=Cafeteria%2C%20el%20rinconcito%20del%20andador&query_place_id=ChIJPXBMNAD_0YURZpL-NCiaCH0"
"https://lh3.googleusercontent.com/gps-cs-s/AC9h4nrEG8HAMG0_rYqmwaJJkBBwxlWVsXEBAQ7O852q9N11UX7rL9b16xN2rKBTeI7Qh5SMRPK5kkyohgFQQ_4XM5__qlfe82krd6rnqJ3FHS85ZPpA_dSAooON-XVO6rED9KA_ZqBs=w408-h305-k-no","Cafetería 8 1/2","4.2","359","03330, San Felipe 144","Benito Juárez, Ciudad de México","CDMX","MX",,,"Cafetería","https://www.google.com/maps/search/?api=1&query=Cafeter%C3%ADa%208%201%2F2&query_place_id=ChIJJUJjfb__0YUR1n312SsD5v8"
"https://lh3.googleusercontent.com/gps-cs-s/AC9h4npbFFr8emCkPQzzqme9mIgquZ20OgxR7mXwsFug1OLsPC-yCigB2MNXECkA6AFSyk2jZZiUFDFgIW4y0TDExCDr37z4kTP1orJ0Xc6v_3ZAeF2DMKjGUlMxxD2eViMJb7toKCWx5w=w408-h544-k-no","Cleotilde Barra de Café San Miguel Chapultepec","4.5","86","C. Gobernador Gregorio V. Gelati 20","Miguel Hidalgo, Ciudad de México","Cd. de México","MX","https://www.instagram.com/cleotilde.cafemx",,"Cafetería","https://www.google.com/maps/search/?api=1&query=Cleotilde%20Barra%20de%20Caf%C3%A9%20San%20Miguel%20Chapultepec&query_place_id=ChIJdRmvg7j_0YURjK_kbixr-7M"
"https://lh3.googleusercontent.com/p/AF1QipNUyG6QHvQhKeIqRJ6KxceDTDTc3SrbUPW6l9xe=w408-h306-k-no","Cafe Society","4.1","55","Monte Líbano 915-Local 1","Miguel Hidalgo, Ciudad de México","Cd. de México","MX","http://www.cafesociety.com.mx/","+52 55 4167 1351","Cafetería","https://www.google.com/maps/search/?api=1&query=Cafe%20Society&query_place_id=ChIJ-wV53poB0oURXaSuLo0tpDM"
"https://lh3.googleusercontent.com/p/AF1QipO-Nx6fHcQ2Z0eAj7s2x4WKC9EGcNo2e4iRgzf7=w408-h544-k-no","Piso73.Cafetería de Barrio Eugenia","4.4","38","Eugenia 1554","Benito Juárez, Ciudad de México","Cd. de México","MX","https://www.piso73.com/","+52 55 2598 1839","Cafetería","https://www.google.com/maps/search/?api=1&query=Piso73.Cafeter%C3%ADa%20de%20Barrio%20Eugenia&query_place_id=ChIJC8MGEnL_0YURJQADm_Bkuz4"
"https://lh3.googleusercontent.com/gps-cs-s/AC9h4nr-RH_q0RfsHwCuJaC_nheFh9foflyGRJixiGq6Hva7GkkWHS6zjorgIQtYNZ1IbDOSe6m-cgB-Eu9PpdBh4XVLNQ8SUytPFiulhmlFcrXyV7-O3nQ-mX4vrMtVbas29XnAbA=w408-h544-k-no","CAFETERÍA CUITLÁHUAC","4.6","403","Eje 3 Norte Av. Cuitláhuac 1140","Azcapotzalco, Ciudad de México","CDMX","MX","http://cafecuitlahuac.webstarts.com/","+52 55 8926 4982","Cafetería","https://www.google.com/maps/search/?api=1&query=CAFETER%C3%8DA%20CUITL%C3%81HUAC&query_place_id=ChIJk0A-5vv40YURXTx8lf1ow4U"
"https://lh3.googleusercontent.com/p/AF1QipMqH1gNCHmwshi8X_sD7CD64uGtFavqhOZe_5uK=w408-h544-k-no","The Coffee Plaza Carso","4.1","18","C. Lago Zurich 245","Miguel Hidalgo, Ciudad de México","Cd. de México","MX","https://www.thecoffee.jp/","+52 33 1088 9081","Cafetería","https://www.google.com/maps/search/?api=1&query=The%20Coffee%20Plaza%20Carso&query_place_id=ChIJ1Yf7X1kD0oURSt3sYYtvVL8"
"https://lh3.googleusercontent.com/gps-cs-s/AC9h4nqfGVJ7X64a6wpsBIK0Ao7K2IQe66p4B9ZdCYxYLkMxMCDqkDXuIbNr55e-XSPtKP5VnMJ2yEB5eaOpOojJHtzXx5LAYqcyQtTJGM5wgL02VuByluPuAf9w1_CiQ1m6HOKHVfmjUg=w408-h544-k-no","Cafeteria & Yogurt Katela","4","564","Av. África 88","Venustiano Carranza, Ciudad de México","Cd. de México","MX",,"+52 55 7598 8840","Cafetería","https://www.google.com/maps/search/?api=1&query=Cafeteria%20%26%20Yogurt%20Katela&query_place_id=ChIJFS-qRPz70YURxqAWjpiX6vk"
"https://streetviewpixels-pa.googleapis.com/v1/thumbnail?panoid=2Cr6ga-qbNbOhoI2x4DDeA&cb_client=search.gws-prod.gps&w=408&h=240&yaw=191.95097&pitch=0&thumbfov=100","Café Amanecer Expendio y Cafetería","5","1","Av. Juarez 32","Cuauhtémoc, Ciudad de México","Cd. de México","MX",,,"Cafetería","https://www.google.com/maps/search/?api=1&query=Caf%C3%A9%20Amanecer%20Expendio%20y%20Cafeter%C3%ADa&query_place_id=ChIJU75t63j50YURVHq4ckJURco"
"https://lh3.googleusercontent.com/gps-cs-s/AC9h4npyL3R-JhALZnYuHHhtDx_mN1KOhVbZCGP7-cKRWsMWl31MG0hsdmWyfV483s5LbegPKHU2h8jjrQfr8SN5aevm1LJq8qoi35yr5LnR75L_5hLlwbLKmV8lAGiJZrjBQVfBO06mbQ=w408-h725-k-no","Café Darío - Escandón (desde 2009)","4.7","298","C. Sindicalismo 78 A, entre José Martí Y calle Progreso","Miguel Hidalgo, Ciudad de México","Cd. de México","MX",,,"Cafetería","https://www.google.com/maps/search/?api=1&query=Caf%C3%A9%20Dar%C3%ADo%20-%20Escand%C3%B3n%20(desde%202009)&query_place_id=ChIJf41xqm7_0YUR5wwFlluybO8"
"https://lh3.googleusercontent.com/p/AF1QipM2yTKo3siU54QdYOdoqKY0bzUGQBEeeUmu6KgP=w408-h306-k-no","Caffe Escandon","4.9","8","Astrónomos 61","Miguel Hidalgo, Ciudad de México","Cd. de México","MX",,"+52 55 4321 5065","Cafetería","https://www.google.com/maps/search/?api=1&query=Caffe%20Escandon&query_place_id=ChIJC6ngVwv_0YURhmE6KMXx4PY"
"https://lh3.googleusercontent.com/p/AF1QipNeE4eIIi7bIZw3X8w8lRo8t9gqUM2rsn3CDOjA=w408-h351-k-no","Cafeteria Queen","5","14","Orion 113","Coyoacán, Ciudad de México","Cd. de México","MX",,"+52 55 1764 0735","Cafetería","https://www.google.com/maps/search/?api=1&query=Cafeteria%20Queen&query_place_id=ChIJ2ZOZbs3_0YUReeoVHd7Bfxk"
"https://streetviewpixels-pa.googleapis.com/v1/thumbnail?panoid=YCLVabssuxIgR3-KgHpFnA&cb_client=search.gws-prod.gps&w=408&h=240&yaw=358.81827&pitch=0&thumbfov=100","Cafeterias Especializadas Internacionales Sa De Cv.","5","2","Av Francisco I. Madero 14","Cuauhtémoc, Ciudad de México","Cd. de México","MX",,"+52 55 5518 0123","Cafetería","https://www.google.com/maps/search/?api=1&query=Cafeterias%20Especializadas%20Internacionales%20Sa%20De%20Cv.&query_place_id=ChIJw8uHfIv-0YURDQaJrmu1O64"
"https://lh3.googleusercontent.com/p/AF1QipNNmOTxdooY2tXgQiSJoA8tyw7h9yUGpm5-DWn1=w408-h306-k-no","Cafetería La sagesse","4.5","91","Av. del Recreo 1734","Iztacalco, Ciudad de México","Cd. de México","MX",,"+52 55 3566 0647","Cafetería","https://www.google.com/maps/search/?api=1&query=Cafeter%C3%ADa%20La%20sagesse&query_place_id=ChIJLWWLhyP_0YURuoHnGPUt1V4"
"https://lh3.googleusercontent.com/p/AF1QipOm4b42N7xCerT0qPEfNrQnexGrpOSgkMCJKLGx=w427-h240-k-no","Cafetería Yékatl","4.9","61","ACULTZINGO MZ 45 LT 15","Gustavo A. Madero, Ciudad de México","CDMX","MX","https://www.facebook.com/Cafeter%C3%ADa-Yekatl-104809428432234/","+52 56 1946 9058","Cafetería","https://www.google.com/maps/search/?api=1&query=Cafeter%C3%ADa%20Y%C3%A9katl&query_place_id=ChIJOSRiEQn70YUR3HZSHemmSPc"
"https://lh3.googleusercontent.com/gps-cs-s/AC9h4nrkpM8omaPeMOLyTVV9chb3xEb7mQvktYIj6jd8qto1czY-EvxvsloZOc2tg27SLvcie7PlB-0u2kW_s1LPoQ5Lz8ZTa7p_rloOLut6V-WhvLY657lp2h1oqFc9fMSP_CW1G_Q=w408-h545-k-no","Cafetería Ámelikfé","4.8","68","Maestro Rural & Adolfo López Mateos. Zona Escolar","Gustavo A. Madero, Ciudad de México","CDMX","MX","https://www.facebook.com/%C3%81melikf%C3%A9-108816080561155/",,"Cafetería","https://www.google.com/maps/search/?api=1&query=Cafeter%C3%ADa%20%C3%81melikf%C3%A9&query_place_id=ChIJp86u6ar30YURP4hWHYTQo9c"
"https://lh3.googleusercontent.com/gps-cs-s/AC9h4npXsvKdQRgq9Vfq2E9a12gxtqxrG7OFVJeHhVhjimBlbmC6ixL73W1jjC15ajZ7Xx5j_qmXM7XZesvmVdoAMqXjUOJPzYpIWyffSPVCLwE2flUw55iQRYnZeZtnxDOKFluX6dpz=w408-h544-k-no","Sweet soul cafeteria y pasteleria","4.9","55","Cda. Matías Romero 75","Azcapotzalco, Ciudad de México","Cd. de México","MX",,"+52 56 4322 4451","Cafetería","https://www.google.com/maps/search/?api=1&query=Sweet%20soul%20cafeteria%20y%20pasteleria&query_place_id=ChIJ5-gTuU750YUR47PD6_samE0"
"https://lh3.googleusercontent.com/gps-cs-s/AC9h4npvBGjdNj5uU9-nkj_eAQoopi0KpS3Bf2OjFmfmAOJd6pNMwM5B89xUeCA7rpOQ28_jN_6teo2lMuGJEg7MsMDCcOEWfEgP5Ut8e9-DtbOdHC2aJej5RpSjN09jDFEX2tI_JAU=w408-h544-k-no","Cafetería ""Sabor a Mi""","4.8","13","Citli 406","Gustavo A. Madero, Ciudad de México","Cd. de México","MX",,"+52 56 2542 8366","Cafetería","https://www.google.com/maps/search/?api=1&query=Cafeter%C3%ADa%20%22Sabor%20a%20Mi%22&query_place_id=ChIJ7Tj_ov_50YURMX5o3R5ZnYs"
"https://lh3.googleusercontent.com/p/AF1QipPwxaByBnszu9nXr8mCWMN_RIt41DNxq5pxiJW6=w408-h306-k-no","Fuente de Sodas y cafetería Damasy","4.9","13","C. 10-A 45","Gustavo A. Madero, Ciudad de México","Cd. de México","MX",,"+52 55 7849 5184","Cafetería","https://www.google.com/maps/search/?api=1&query=Fuente%20de%20Sodas%20y%20cafeter%C3%ADa%20Damasy&query_place_id=ChIJC90TbVr50YURpe3WLdjS250"
"https://lh3.googleusercontent.com/p/AF1QipMwppvhGQp6UXhI7TKVXLt-aaOEMWPksMjDdj4-=w408-h306-k-no","Cafeteria Tochan","4.6","58","Leopoldo Blackaller","Azcapotzalco, Ciudad de México","Cd. de México","MX","https://www.facebook.com/artesanalatupaladarTOCHAN","+52 56 2125 1200","Cafetería","https://www.google.com/maps/search/?api=1&query=Cafeteria%20Tochan&query_place_id=ChIJ1Zxg9gQD0oURlj94HYhjmbo"
"https://lh3.googleusercontent.com/gps-cs-s/AC9h4nq5VtNsqhD_aDRMs1lK5cm0NFI2tU4B4ohaDiScUgSlK5gDVWDzvRwpvE1QGoQVM-Joe32tRIL4omJq5VZR5iwVIA9xAXjLp9PwUvz8b6AC3f_kDvh7mhk01QrmM9OI4vJNRRjf6w=w408-h723-k-no","Chismito Vintage Cafetería","5","10","Antonio Roanova 18","Gustavo A. Madero, Ciudad de México","Cd. de México","MX",,"+52 55 1785 5468","Cafetería","https://www.google.com/maps/search/?api=1&query=Chismito%20Vintage%20Cafeter%C3%ADa&query_place_id=ChIJNxTnLAD30YURmIUJzq7h20o"
"https://streetviewpixels-pa.googleapis.com/v1/thumbnail?panoid=ypXghA6ZczjFaJPGJb5RrQ&cb_client=search.gws-prod.gps&w=408&h=240&yaw=355.08395&pitch=0&thumbfov=100","FERCH CAFETERIA","4.6","37","Av Chapultepec 45","Cuauhtémoc, Centro","Cd. de México","MX",,,"Cafetería","https://www.google.com/maps/search/?api=1&query=FERCH%20CAFETERIA&query_place_id=ChIJGwNhzS7_0YUR6ewPEPJz-r0"
"https://lh3.googleusercontent.com/gps-cs-s/AC9h4nog-O-XVOf2grahQ2ab0Uedma-hMggMWVq5MY8w_yeMvewv4-pNN0vmiEmffYfYi9_VavWr5wbtO1dylQjhlx4heNPZ24ZCjko_oZLCYPxcFtJxMQdVBbn2YbSrbqQX2zbSTgRQGg=w408-h306-k-no","Germina Narvarte: Restaurante - Cafetería - Tienda a Granel","4.5","359","Torres Adalid 1112","Benito Juárez, Ciudad de México","Cd. de México","MX","https://narvarte.germina.love/","+52 55 7632 8146","Restaurante","https://www.google.com/maps/search/?api=1&query=Germina%20Narvarte%3A%20Restaurante%20-%20Cafeter%C3%ADa%20-%20Tienda%20a%20Granel&query_place_id=ChIJHzxKlZr_0YURNKfDgcZNw64"
"https://lh3.googleusercontent.com/p/AF1QipNa-Sm1rxjtv83H0A-_uVObzGW3_OvumgJlblei=w408-h305-k-no","BUZÓN CAFÉ suc. Mártires de Tacubaya","4.4","10","Martires de Tacubaya 62","Miguel Hidalgo, Ciudad de México","Cd. de México","MX","https://order.ubereats.com/toluca/food-delivery/Buz%C3%B3n%20Caf%C3%A9/vUzZXNCVQ-W6t1cqQSovnA/?utm_source=web-restaurant-manager","+52 722 154 7563","Cafetería","https://www.google.com/maps/search/?api=1&query=BUZ%C3%93N%20CAF%C3%89%20suc.%20M%C3%A1rtires%20de%20Tacubaya&query_place_id=ChIJWyFDlhP_0YUR6gElaVT6bhg"
"https://lh3.googleusercontent.com/gps-cs-s/AC9h4nq8MMCyDNWHKTA0OBZYQxDZA1SSpLEuIE4F9Ue9ZqAKHFnMRGx2451HGapSiPL03vi_kfWGBTcH4yNAObZ_tWjlbcy654ShZLjA5JdkfmLlGebRyks5GX8dqocsdy8UFGGVzlw58w=w408-h723-k-no","Cafeteria Starcup","4.5","83","15660, Coxcox 113(MZ18 LT27","Venustiano Carranza, Ciudad de México","CDMX","MX",,,"Cafetería","https://www.google.com/maps/search/?api=1&query=Cafeteria%20Starcup&query_place_id=ChIJn0o-5Yf80YURbx0jXErE4ZA"
"https://lh3.googleusercontent.com/gps-cs-s/AC9h4npOlBhUalc2SS2UWryWeOAYVnfwfaJXDKJywkdmobrgdRcZ8d2bB2-byaU2kK3bl3x3xs3Nsac8iPrMR7eiNV90oNhGlcJrWHKIzr3AZBhKiyOvo07j98yFPshnWM0B-t_RX38x=w408-h544-k-no","El Colegio - Cafetería","4.5","40","Donceles 104","Cuauhtémoc, Ciudad de México","Cd. de México","MX","https://elcolegiocafe.com/","+52 55 2670 4298","Cafetería","https://www.google.com/maps/search/?api=1&query=El%20Colegio%20-%20Cafeter%C3%ADa&query_place_id=ChIJWzDnrij50YURhoyuQ6RhNeY"
"https://lh3.googleusercontent.com/gps-cs-s/AC9h4nq4eA8pLi8DRlHvYHRDXB5X6k9hezDDRUv8GifLqOeAeA5IU4_5tuUr4aDCkNp6wYEfW0B1vF1pjGEqw2-d9qgyFIhFHsrIHIeE2IWV7qkgLp6Oy72SaM5mg7rnduWyk74sKHPzGA=w408-h306-k-no","Cafetería Apolo","4.5","1428","Av. Noé 94","Gustavo A. Madero, Ciudad de México","Cd. de México","MX",,,"Cafetería","https://www.google.com/maps/search/?api=1&query=Cafeter%C3%ADa%20Apolo&query_place_id=ChIJIYx8BW350YUR_TL_0xCq-78"
"https://lh3.googleusercontent.com/p/AF1QipOfFZSbdIdlrQBhVQa_ugGzX8sCiv1VppNx_wZO=w408-h306-k-no","Cafetería Negro Café","4.6","71","José María Roa Bárcenas 107A","Cuauhtémoc, Ciudad de México","Cd. de México","MX",,,"Cafetería","https://www.google.com/maps/search/?api=1&query=Cafeter%C3%ADa%20Negro%20Caf%C3%A9&query_place_id=ChIJOXUZ--7_0YUR_6ZErH-nIiE"
"https://lh3.googleusercontent.com/gps-cs-s/AC9h4nrzANbSD2htWiIPVYhHVnO5DDh8GlpXiDtwDXPMzeAmkorm73ngkaDErizNd1uZ_UVcRVuPaIpDUVwQ8Ogzfy8X74xZy_ORMgRY8cvgk5vt5ITM1LSPM6G30SypYUKbF2VuNMTYmQ=w408-h362-k-no","Cafeteria Espressino","4.5","227","Miravalle 932-Local B","Benito Juárez, Ciudad de México","Cd. de México","MX","https://www.instagram.com/espressinoo/","+52 55 6380 6211","Cafetería","https://www.google.com/maps/search/?api=1&query=Cafeteria%20Espressino&query_place_id=ChIJ0Wuu2x3_0YURZ23jbKyag-U"
"https://lh3.googleusercontent.com/gps-cs-s/AC9h4npKpuXDVa45GlaC_zRH4VVCpUilD7NTqSNI8riL-A2qsRG4o4kCv1HZxcPeVhxCvWfy-ie5xs2sjuMjciWEj1bFvhJak27FbgurMX0SgnUY2GcPXN9gU12-gsGz6Ujy1vsp6v8JNg=w426-h240-k-no","Cafeteria La Cereza","4.3","173","08500 de, Sur 24 53","Iztacalco, Ciudad de México","CDMX","MX",,,"Cafetería","https://www.google.com/maps/search/?api=1&query=Cafeteria%20La%20Cereza&query_place_id=ChIJ-dUwWbP90YURS4XQfAStlAA"
"https://lh3.googleusercontent.com/gps-cs-s/AC9h4nrj2XsA3V4uXCs2URG5MpmvRlQXgmMAfPwp2UD4Q7q0D0Vd7XravAKT3GAfKC7fuPK7LtWy1gJcqh5IpWYsztEPobbil_ZFWDCeX2oW3WJvlnv-asfmGuKlt6R-rJMtOADkCedWL-RfHxoZ=w408-h306-k-no","Cafeteria ""La Finca""","4.5","86","Eje 5 Sur 218","Benito Juárez, Ciudad de México","Cd. de México","MX",,"+52 55 5523 5192","Cafetería","https://www.google.com/maps/search/?api=1&query=Cafeteria%20%22La%20Finca%22&query_place_id=ChIJkYhUxXX_0YUReiHo8pbVT9E"
"https://lh3.googleusercontent.com/gps-cs-s/AC9h4npma7g5NDVy8ZEwSFrNfvZJe2H35G3M0aAmv4FYEgYqRWNK5RMODsFFfNCrRIfkYlyQVRGhxWXfsIdXle5yqzUgtHhL0efJKO0mOOnA8tsjsaUebuBjA2DgDH3A2-PipOp_HnPS=w408-h550-k-no","Cafetería Tu Eres mi Cafe","3.9","606","Castilla 325 esquina Estafeta, Estafeta 335","Benito Juárez, Ciudad de México","CDMX","MX",,,"Cafetería","https://www.google.com/maps/search/?api=1&query=Cafeter%C3%ADa%20Tu%20Eres%20mi%20Cafe&query_place_id=ChIJW8UR1En_0YURZ_bQR9e7UsQ"
"https://lh3.googleusercontent.com/gps-cs-s/AC9h4np9m88O5wFmLKxrEg5KlmlX8VZBNkz5uslX-iIleVx5C5Rdr60qZLC7E9aLMjgtgbkIczyXRp9Qg8GIF45LoXXjNzrflHdSAB-eNP_9_zImakDnNAXqfLvNLTSXayyk4MD88Hheyw=w408-h306-k-no","Cafeteria Amore Mío","4.6","49","Dr. Lavista 145","Cuauhtémoc, Ciudad de México","Cd. de México","MX",,"+52 55 5162 0718","Cafetería","https://www.google.com/maps/search/?api=1&query=Cafeteria%20Amore%20M%C3%ADo&query_place_id=ChIJ2xqnd7L_0YURAypHs4GvwvU"
"https://lh3.googleusercontent.com/gps-cs-s/AC9h4noC2yyepPA_0004eLTHnR9CVt73MaNq5GFyvIuqg6ZaT-f2NMHtCuQ14mbiEkO7yWOMq8IpH_PZgHVr01y-QO1DKuY1EGOPzjHkytYWxoOhtLArSM2TeDq6zSBZZJ7KHzLjISZ29g=w408-h306-k-no","Cafetería GF","4.3","57","Atanasio G. Sarabia 347","Iztapalapa, Ciudad de México","Cd. de México","MX","https://www.facebook.com/profile.php?id=100091515956464&mibextid=LQQJ4d",,"Cafetería","https://www.google.com/maps/search/?api=1&query=Cafeter%C3%ADa%20GF&query_place_id=ChIJuTsRWo__0YURqCQwvqZaYcA"
"https://lh3.googleusercontent.com/gps-cs-s/AC9h4no6qApIGVAiwFozmRmhU1zrlqNDySilNDzUrbfjb7aXr_wICBbKSrLErkjGhtAE2kp87ffXRTiU9OZjM4jyHMr-QULK14YlC-Op_-pL-ukBUTTTEEiV7L4MjBgZ7hqfRkXsdGDThTvw1NsV=w408-h544-k-no","CAFETERIA HÁDANKA","5","2","Av. Sur 8 411","Iztacalco, Ciudad de México","Cd. de México","MX","https://www.instagram.com/cafeteria.hadanka/?next=/","+52 55 4953 5495","Cafetería","https://www.google.com/maps/search/?api=1&query=CAFETERIA%20H%C3%81DANKA&query_place_id=ChIJZ-slGoP90YUR0WoYvf24efk"
"https://lh3.googleusercontent.com/gps-cs-s/AC9h4nqle22uT482gbwz21YAJYUtr2aFt8ckPBownbvbEMprtAVB-Wpth9fJ7D-eEls2Q2oNOLtjGyRgdmuIfMhNLSEHcyiq2RMHG9pKSH-Hv319oaZq1rMcuDrmzjTy8YqbX7VAJaug=w408-h544-k-no","Cielito Querido Café Homero","4.4","693","Av. Homero 109","Miguel Hidalgo, Ciudad de México","Cd. de México","MX",,"+52 55 5531 0691","Cafetería","https://www.google.com/maps/search/?api=1&query=Cielito%20Querido%20Caf%C3%A9%20Homero&query_place_id=ChIJv1bYFKz40YURtW2xSYVnccQ"
"https://lh3.googleusercontent.com/gps-cs-s/AC9h4npEu9rlbtlL9mZ2Arpa4_EDIIE-PgljrtzeJog0FdU9kQ1EWvzdMOejlqSJ1dcbJdsGGSF_1hcOBRxCZkeYCoXhCfWJUZaaJND0www55LX84sqkToxU68k5DJFMtFcx6Tlc9XN8mA=w426-h240-k-no","Chocoland (cafetería & chocolatería)","4.2","179","C. Damasco 78","Venustiano Carranza, Ciudad de México","Cd. de México","MX",,"+52 55 4857 2421","Cafetería","https://www.google.com/maps/search/?api=1&query=Chocoland%20(cafeter%C3%ADa%20%26%20chocolater%C3%ADa)&query_place_id=ChIJ__-6UPz70YURvhIl46qYPDQ"
"https://lh3.googleusercontent.com/p/AF1QipOHQ87_PQqwh53fUEz1RVzA2gFZkF9AZdYnWhMP=w408-h544-k-no","Daka Cafetería","4.8","19","Jesús Urquiaga 6","Benito Juárez, Ciudad de México","Cd. de México","MX",,"+52 55 3752 1422","Cafetería","https://www.google.com/maps/search/?api=1&query=Daka%20Cafeter%C3%ADa&query_place_id=ChIJze2Bd37z0YURvim1djyyQEk"
"https://lh3.googleusercontent.com/p/AF1QipMexYiE_K2dzor-KdIGqNjUdQsbHi7A6SaTewG6=w408-h816-k-no","Cafeteria T & K","4.1","93","C. Laboristas 52","Iztapalapa, Ciudad de México","Cd. de México","MX",,"+52 55322100","Cafetería","https://www.google.com/maps/search/?api=1&query=Cafeteria%20T%20%26%20K&query_place_id=ChIJC292H1v-0YURMvtYsjRD3mg"
"https://lh3.googleusercontent.com/gps-cs-s/AC9h4npQzJTOeHu6GoX90ZJwnZBRnJTBXoFd0XvmY2ekMdsMnFRE4Y2FX9wuc9qq0HezXzj_1JHK-TU6_Pj_bRxCNsg0n1OXYdaZ-7ApTKXYFPjc0GoA-t3YGmY9Q0HMs9TbZAJaRSkC=w426-h240-k-no","Cafetería Roca de Fortaleza","3.9","187","Simón Bolívar 1366","Benito Juárez, Ciudad de México","Cd. de México","MX","https://www.facebook.com/cafeteria.roca?mibextid=LQQJ4d","+52 55 9021 3372","Cafetería","https://www.google.com/maps/search/?api=1&query=Cafeter%C3%ADa%20Roca%20de%20Fortaleza&query_place_id=ChIJ7RPXBBb_0YURfdCd9arqEgI"
"https://lh3.googleusercontent.com/gps-cs-s/AC9h4nqEYc4P7rR615ukqw-8KS-U1hg02NpJ_n8TbT4p85351bhHJp9v0wKdgXHDHz3OemIWfWNUqzjeh2rDUvDUYIWdagK10YjkzootsVRGg8IRj4cRBXXVHK78INc9Vm5ZQpjGVhYF=w408-h544-k-no","Central Café","5","7","Gral. Pedro Antonio de Los Santos 104-local-D","Miguel Hidalgo, Ciudad de México","Cd. de México","MX",,,"Cafetería","https://www.google.com/maps/search/?api=1&query=Central%20Caf%C3%A9&query_place_id=ChIJhUZzobf_0YURKHYK3Ox-h_c"
"https://lh3.googleusercontent.com/gps-cs-s/AC9h4nr1PpiE2a0OjkPEc8Cx53oxF9kZDorN3JVE4LcXDRvYfWOF7hbA7FWlQn-BO96qh5UkNbX6IBV_pfYQiz7DAnRW6rG7brXxjtUtHdEAFrZyv72RS4CRYdUrEDp1--cpvgcAzRzsUg=w408-h544-k-no","Café Papalotl Villahermosa","4.4","173","Ote. 185 47","Gustavo A. Madero, Ciudad de México","Cd. de México","MX","https://www.facebook.com/cafepapalotlvillahermosa?mibextid=ZbWKwL","+52 55 6750 2323","Cafetería","https://www.google.com/maps/search/?api=1&query=Caf%C3%A9%20Papalotl%20Villahermosa&query_place_id=ChIJMwelIiP60YURrxZIE_5WPTw"
"https://lh3.googleusercontent.com/gps-cs-s/AC9h4npCnk5heATOV2nwNe099enKaZwMQdk10lzNvBa_mOhck1BP-5GYRRTW4VXl6cQmlQETNqTkwXgZ1Kzl5lup70PCj_akH2C3owuOOLUYWOEbR7lje0NzMYyK0FCH0y5QBNQ3Mw5gIw=w408-h306-k-no","Cafetería “El Nuevo Huatusco”","4.9","18","Pje. Allende 77-local 2","Cuauhtémoc, Ciudad de México","Cd. de México","MX",,"+52 55 5526 9785","Tienda de café","https://www.google.com/maps/search/?api=1&query=Cafeter%C3%ADa%20%E2%80%9CEl%20Nuevo%20Huatusco%E2%80%9D&query_place_id=ChIJ3e-aj1v50YURnVICOuyBVG4"
"https://lh3.googleusercontent.com/gps-cs-s/AC9h4not_M9cqCEuafrNx7IXZSqbH2cnL7qS4FlsQi5JMkui76oegVjMgHEGafTmZwFCIfftFDX32wCD9ZvyclSPjOaVeaHCCz9GKiMuF8H7bCT_wX82cadFPBkHrHLXpVDwLFAuQGWNGQ=w408-h306-k-no","Lonchería El Secreto","5","11","Av. Universidad 839","Benito Juárez, Ciudad de México","Cd. de México","MX","https://el-secreto-cafe.ola.click/products","+52 55 5605 9078","Cafetería","https://www.google.com/maps/search/?api=1&query=Loncher%C3%ADa%20El%20Secreto&query_place_id=ChIJK_xq3bz_0YURzdQ9BTyCUbE"
"https://lh3.googleusercontent.com/gps-cs-s/AC9h4npVXxrWSYE9OUcmZn5Hs85PCvztSCIO2MDgVh6EiMAvPhaoKzN70eb1up0FB5iz6M60FH2cOi19ysge1cVSMxqlEceNkUsLT96Nprf4qAhKKwhKtSs9ueqtE6Xdem4xwkGrJm9z=w408-h544-k-no","Cafetería El Álamo","4.6","147","Andalucía 227 Bis","Benito Juárez, Ciudad de México","Cd. de México","MX","https://www.facebook.com/profile.php?id=100054383685816","+52 55 4196 6306","Cafetería","https://www.google.com/maps/search/?api=1&query=Cafeter%C3%ADa%20El%20%C3%81lamo&query_place_id=ChIJe9g_-fz-0YURas-bxh6UthM"
"https://lh3.googleusercontent.com/gps-cs-s/AC9h4no4WI5qhuAjZKJ9-0-p9tuJUQaWcw_y8K9xyx-rrqdV1bUp4PaYvMXkIwIZMb3iFus2se8Mctf5xC21vPwHGWb6NnoPKr_6BuE2VMYebhh3AgDXVIefrcnQpem14uglMsgaNsdRaQ=w408-h306-k-no","Cafetería y chocolatería El Negrito","4.4","70","C. Transvaal 141","Venustiano Carranza, Ciudad de México","Cd. de México","MX",,"+52 55 6000 0302","Cafetería","https://www.google.com/maps/search/?api=1&query=Cafeter%C3%ADa%20y%20chocolater%C3%ADa%20El%20Negrito&query_place_id=ChIJebAPBvT70YURF85Xc3eDX7Y"
"https://lh3.googleusercontent.com/gps-cs-s/AC9h4npF5vJ93e_xwmzoBy62htyYe_CLrbIi6KvtjUybhIhOpj77B5EdcQLehx-MTc7iU35I7nQUTtBxq_B6_EdGWaOTGw7wb9mxzz-W1nv5lHo01fSZFU0WhVjQ_yYauoy2KfxuKWfxGg=w408-h544-k-no","Cielito Querido Miyana","4.4","1078","Av. Ejército Nacional Mexicano 769","Miguel Hidalgo, Ciudad de México","Cd. de México","MX",,,"Cafetería","https://www.google.com/maps/search/?api=1&query=Cielito%20Querido%20Miyana&query_place_id=ChIJYUXYLQUC0oURYJouBaQ45wg"
"https://lh3.googleusercontent.com/gps-cs-s/AC9h4npbzRDDRZGco1v7pxqyG-wJ3FZUZEVFV32EKICUAyrw5J4tcx4mGA-s3ccMBuOsXAr7is0A2gt9aZOjHd0E8OH2UtmKDZ4tCpFQNVitfDYc1dJUBG6s3ZdQW7fZHPjkimyqHOEr=w408-h544-k-no","Cafetería 1/2 Luna","4.2","147","Florencia 68","Cuauhtémoc, Ciudad de México","Cd. de México","MX",,"+52 55 5511 2777","Cafetería","https://www.google.com/maps/search/?api=1&query=Cafeter%C3%ADa%201%2F2%20Luna&query_place_id=ChIJIZBVRDb_0YURgU_9tflSi5w"
"https://lh3.googleusercontent.com/gps-cs-s/AC9h4npeNP-cNttB_QEVhtZenGybjFot02CO3L4iLIWFlH0NVXAY1nYgin73mCvaMWP-EmRRINHXyGyaRisxynZ4W5nM6WIZEXX9vAuIUdweFB4kHVubLmvC5SbS43COk7_UvjqraZPH0w=w408-h544-k-no","Fuente De Sodas/Cafetería","4.5","13","Ermita Iztapalapa 1719","Iztapalapa, Ciudad de México","Cd. de México","MX",,"+52 55 2636 1090","Cafetería","https://www.google.com/maps/search/?api=1&query=Fuente%20De%20Sodas%2FCafeter%C3%ADa&query_place_id=ChIJ54ZYP4390YURCSBmoZigJjc"
"https://lh3.googleusercontent.com/p/AF1QipP5lbcKpKfjWTfDSAmchyHa6rm50n41zRwC4mJ1=w408-h406-k-no","Perro café - cafetería y pastelería","4.7","7","Cnel. Benito San Zenea 230-Local 150","Iztapalapa, Ciudad de México","Cd. de México","MX","https://perro-cafe-cafeteria-y-pasteleria.kyte.site/","+52 56 2353 8085","Cafetería","https://www.google.com/maps/search/?api=1&query=Perro%20caf%C3%A9%20-%20cafeter%C3%ADa%20y%20pasteler%C3%ADa&query_place_id=ChIJueC9ZnL90YUR2CcY81LUPfM"
"https://lh3.googleusercontent.com/gps-cs-s/AC9h4np7GLtkstRHepoyhuOL2ey7wzabGVr4qgsSNpW0d5x5v6e9Xw3efTmj0N8m5rzq7AxMWPFqxi4HRmcGcMlRNkl4dDX8lSXeKC1W1jYY3fp4YnNat-s6bkcRYzfc-PlAE1uFit0A=w408-h306-k-no","Bejuco Cafetería - Bar","4.4","55","C. Madrid 13","Coyoacán, Ciudad de México","Cd. de México","MX","https://www.facebook.com/bejucocafeteriabar/?__tn__=,d,P-R&eid=ARAh3FTN-TnZ8WwdCDEC9lk9D_xbPzZioQzfHyom7jLMDEMrSckq3ItnlKSnHNdHtBvxOI9tG-GSLBR9","+52 55 2197 7440","Cafetería","https://www.google.com/maps/search/?api=1&query=Bejuco%20Cafeter%C3%ADa%20-%20Bar&query_place_id=ChIJs5-G_Q__0YURZaIQA8OEd38"
"https://lh3.googleusercontent.com/p/AF1QipPaCMQGONvXS5hO9mFB4qRib-S4OAD6VrMy-Ehr=w408-h306-k-no","6º Dans le Monde Cafetería Gourmet","5","6","Nte. 46-A","Gustavo A. Madero, Ciudad de México","Cd. de México","MX",,,"Cafetería","https://www.google.com/maps/search/?api=1&query=6%C2%BA%20Dans%20le%20Monde%20Cafeter%C3%ADa%20Gourmet&query_place_id=ChIJjVSUJkD50YUR0fDaZrM95zA"
"https://lh3.googleusercontent.com/gps-cs-s/AC9h4nqVJ7mZbeNpOn8DyEr1vmC3fZVQpkzEHBaZhxNEhOOmn-v7o6Mc_98Cm7KCm2z-6EHJBSPVnwieKOlGWzlF1BIbBdaSPq-_PvmXYoQAK3YCz5f_ghnIcWt85NFNSdl9_bjGpiFqlQ=w408-h725-k-no","HATHOR CAFETERÍA","4.1","16","Ignacio L. Vallarta 1-4to piso","Cuauhtémoc, Ciudad de México","Cd. de México","MX","https://menu.fu.do/cafeteriahathor","+52 55 8539 6620","Cafetería","https://www.google.com/maps/search/?api=1&query=HATHOR%20CAFETER%C3%8DA&query_place_id=ChIJD6OUb_v50YUR9XkCj5uY_6o"
"https://lh3.googleusercontent.com/gps-cs-s/AC9h4npyg8x_jM7ei_cQT05E2a9fwArgkY3xybw10Jk7zEFkNLmzh2x8Hx-gRTa7n1uRYqrRjH30lm-a822k-lFESiPiNXJB7uaIktPkUFuJz9w_Lxh55rBzA3LbVSQHVsLgFqhkdSkm=w408-h544-k-no","Café Génova","4","337","Av. Ejército Nacional Mexicano 594","Miguel Hidalgo, Ciudad de México","Cd. de México","MX",,"+52 55 5250 1223","Cafetería","https://www.google.com/maps/search/?api=1&query=Caf%C3%A9%20G%C3%A9nova&query_place_id=ChIJKeOM33l6WhERB_V507dhCHo"
"https://lh3.googleusercontent.com/gps-cs-s/AC9h4no0bwKNJBq7WYRd1eoC9kzSuGp4PKywmVhGE8yMQpW9o7juL4JKLf8WCPAkaRQ02Dne_QBumjNI1iH32yTLdlcVMjmD1KrpLP2N-X0tWr4OSc6bGMRmrGkKqakVImYmjh1M9Aiy=w408-h544-k-no","Cafes La Corona","4.6","69","Schiller 256","Miguel Hidalgo, Ciudad de México","Cd. de México","MX",,"+52 55 5545 4453","Tienda de café","https://www.google.com/maps/search/?api=1&query=Cafes%20La%20Corona&query_place_id=ChIJ8znFCav40YURan2VmFz_-aQ"
"https://lh3.googleusercontent.com/gps-cs-s/AC9h4nrp3GN5yS-jF0rAF5uRnn6EI0XzTjt-Bo-q3Jel5nuY6tAoZciCjayuDmLp6c5tUy90mzp4Uwc3VtDdvmUuRMp_ODrI95ud2inBVDmsGeYvecvb60pWfZGvzzwvw5DJix0tXkjbZg=w439-h240-k-no","CAFETERÍA OM","4.2","71","Dolores 4","Cuauhtémoc, Ciudad de México","Cd. de México","MX","https://omcafe-mex.negocio.site/?utm_source=gmb&utm_medium=referral","+52 55 5510 9518","Cafetería","https://www.google.com/maps/search/?api=1&query=CAFETER%C3%8DA%20OM&query_place_id=ChIJHWF0_NT-0YURstCUKB1BGq4"
"https://streetviewpixels-pa.googleapis.com/v1/thumbnail?panoid=AX-x_cLlTdSti5wiBcYItQ&cb_client=search.gws-prod.gps&w=408&h=240&yaw=76.738716&pitch=0&thumbfov=100","Cafeteria Casa De La Memoria Indómita","4.7","6","Regina 67","Cuauhtémoc, Ciudad de México","Cd. de México","MX",,"+52 55 5709 1512","Cafetería","https://www.google.com/maps/search/?api=1&query=Cafeteria%20Casa%20De%20La%20Memoria%20Ind%C3%B3mita&query_place_id=ChIJsw6FXn__0YURvaJw-NPtQTE"
"https://lh3.googleusercontent.com/gps-cs-s/AC9h4nqWyXJ3ZxDhflYZyH3I3tSSKS4kn_3hRVd1Y9JbWoWQu5rQYxYVi4eX8yps_YjindAT1CNKFzgLXDgPJncv0bOimv7yWuCFUTQ-zz7byz90AiVEQc53sf1mSxGZvJLFcWfuLtWC2w=w408-h306-k-no","Cafeteria y esoterismo","3.8","363","Diag. San Antonio 1747","Benito Juárez, Ciudad de México","Cd. de México","MX",,,"Cafetería","https://www.google.com/maps/search/?api=1&query=Cafeteria%20y%20esoterismo&query_place_id=ChIJU6jxp1j_0YUR1ktvG2WKZFI"
"https://lh3.googleusercontent.com/p/AF1QipP-945NAy46V18645CNf1HqH2t8FK9TXIj6h3CW=w408-h306-k-no","Cafetería de Barrio","4.9","8","Emilio Azcárraga 9","Iztapalapa, Ciudad de México","Cd. de México","MX",,"+52 55 2272 5461","Cafetería","https://www.google.com/maps/search/?api=1&query=Cafeter%C3%ADa%20de%20Barrio&query_place_id=ChIJYVeuZd390YURdBQYO25OS4U"
"https://lh3.googleusercontent.com/gps-cs-s/AC9h4nr6tBJjFJrWfHhi1BDAByoJIeTbhBmUT1zEVEFygf2uB2pkfpjzze-DS7KPVR7F7ERrvt4uHkKUQz6elu9ZG246sXq2iGP8sLVU1Ea9F2C4dBUPZ-KhfNhc2jI1pqsgA1gq1d0=w408-h544-k-no","CAFETERIA","4.1","47","Rubens 67","Benito Juárez, Ciudad de México","Cd. de México","MX",,"+52 55 6305 2135","Cafetería","https://www.google.com/maps/search/?api=1&query=CAFETERIA&query_place_id=ChIJaUNiB4T_0YURpX7E1IsXmn4"
"https://lh3.googleusercontent.com/gps-cs-s/AC9h4nrkfyfiwPcGU-5B1NrvqxCw0BAX5k5tcW_ilzvcghZx0XwdXoAX-JFs84V9aIgNuci0RDAP0EWkIMaHVzqYIRZL33opNQZFsrCGQNHGSdHa-AesB7sC1XbORv1BqKU4Dmwtla-X=w408-h306-k-no","Cafeteria Buda","4.2","202","Dolores 24C","Cuauhtémoc, Ciudad de México","Cd. de México","MX","https://cafeteriabuda.com/","+52 55 2689 9627","Cafetería","https://www.google.com/maps/search/?api=1&query=Cafeteria%20Buda&query_place_id=ChIJafCuxkj_0YURHVjndVz7ijM"
"https://lh3.googleusercontent.com/p/AF1QipO9Eobx2EJHF9Fqlt03PvilDpDhPeHDObqE5to=w408-h306-k-no","Cafetería Chilango Skate","4.8","21","C. Chilpancingo 162","Cuauhtémoc, Ciudad de México","Cd. de México","MX","https://www.instagram.com/cafeteriachilangoskate/","+52 55 5337 4994","Cafetería","https://www.google.com/maps/search/?api=1&query=Cafeter%C3%ADa%20Chilango%20Skate&query_place_id=ChIJkYHP4U7_0YURthX8yX9d0Xk"
"https://lh3.googleusercontent.com/p/AF1QipPE5AWEYvRqy06G9nC0242ZvR7BnUvRYw5Xc755=w408-h544-k-no","Delicia - Cafetería & Panadería Artesanal","4.6","175","Álvaro Gálvez y Fuentes 200","Coyoacán, Ciudad de México","Cd. de México","MX",,"+52 55 3167 1729","Cafetería","https://www.google.com/maps/search/?api=1&query=Delicia%20-%20Cafeter%C3%ADa%20%26%20Panader%C3%ADa%20Artesanal&query_place_id=ChIJHb9SPtQBzoURzYM8otJgxVg"
"https://lh3.googleusercontent.com/p/AF1QipMjL6r_XYWBjV2ctfr3JpGyaQ-QA1TXcCUqFHRN=w408-h544-k-no","Il Nonno Cafeteria","4.8","20","Primera Cda. Yatzi","Iztapalapa, Ciudad de México","Cd. de México","MX","http://instagram.com/nonnocafeteria/","+52 56 3036 3344","Cafetería","https://www.google.com/maps/search/?api=1&query=Il%20Nonno%20Cafeteria&query_place_id=ChIJtaFbbg4DzoURax5Hqnp4EnU"
"https://lh3.googleusercontent.com/gps-cs-s/AC9h4nqwtUs7ly_bMLi32iWOpVZ5E73WbQ3HQbXlMZb519ys4PbJ9pBVyuv8cr63F-hW5e6vrGQs-vxG6kbdNcJbS4Srn4PGxet6tauCTgUR6f1WUGIsGRuDsi58xmph6oQ0kEgxYD1axw=w408-h306-k-no","Cafetería Peña Real","4.8","29","Pescado 52-A","Tláhuac, Ciudad de México","Cd. de México","MX","https://instagram.com/cafeteria_penareal?igshid=YmMyMTA2M2Y=","+52 55 6462 7947","Cafetería","https://www.google.com/maps/search/?api=1&query=Cafeter%C3%ADa%20Pe%C3%B1a%20Real&query_place_id=ChIJ7SQ3jPoDzoURU-EjAbdEr3o"
"https://lh3.googleusercontent.com/gps-cs-s/AC9h4nrTS_Cn46dkKP4yr1gf5H03j284Ep8fL9wGSwjRIPgZPlShGylUxLWSNX21XZzFekdXmXuuRTC0Xli8IoztcTBzlUgZkdr1NOtpfLYPwuBOxmTM0_LjExPX-9cZYVecKuOnwnyc=w408-h306-k-no","La Suculenta Restaurante Cafeteria","4.3","513","P.º de Las Galias 108","Iztapalapa, Ciudad de México","Cd. de México","MX",,"+52 55 5929 1483","Cafetería","https://www.google.com/maps/search/?api=1&query=La%20Suculenta%20Restaurante%20Cafeteria&query_place_id=ChIJ-QVN42EDzoURyhhMHKa06fc"
"https://lh3.googleusercontent.com/p/AF1QipOI0GkuZMSrypjGotfC68gN4TXGmrrQW5_I7Dlz=w426-h240-k-no","Don Pepe Paletería - Cafeteria","4.8","65","Río Aldama 42","Iztapalapa, Ciudad de México","Cd. de México","MX","https://mx.borders.bistrosoft.com/menu?commerceId=52000282&menuUUID=bf2c1c80-e0fb-4e70-b8a6-61bfc84d9fbf","+52 56 3731 7868","Cafetería","https://www.google.com/maps/search/?api=1&query=Don%20Pepe%20Paleter%C3%ADa%20-%20Cafeteria&query_place_id=ChIJGbX1SAADzoURK7KtIpoXKcI"
"https://lh3.googleusercontent.com/gps-cs-s/AC9h4nrArTRxxfZlW18foa9moc6IbQo8iSLwNPw2KkgZNQq378sFIB5iVeB0xBjyVeIZrLSxexkcld6MzmkIee8_ARYv-B8Ie3wDMF9n2qXpUjz5gS1jcu4Vo0vM3AvJeKuSAvtD_IXSdw=w408-h306-k-no","Café De La Roca","4.4","1029","Calz. de las Bombas 624","Coyoacán, Ciudad de México","Cd. de México","MX",,"+52 55 5088 3221","Cafetería","https://www.google.com/maps/search/?api=1&query=Caf%C3%A9%20De%20La%20Roca&query_place_id=ChIJwRQRFpIBzoUR7JstSMGdyPE"
"https://lh3.googleusercontent.com/gps-cs-s/AC9h4nrwVjHGQVGrdoCafTaykuh4XDIlgLwuQ-dHCF-TBL4lU-jexf2qimuGK-LDsXhq1b5X-DrpOxAJy2dIXuJcaFLaB59i362VRmd9UpPerk-5oVtk3UMr7yDBUcgKgoOnXjXqQLVO=w408-h544-k-no","Cafeteria la escondida","4.9","18","Av. de las Torres","Iztapalapa, Ciudad de México","Cd. de México","MX",,"+52 56 3534 0946","Cafetería","https://www.google.com/maps/search/?api=1&query=Cafeteria%20la%20escondida&query_place_id=ChIJp9x0qpgDzoURpa2vcDXpXPk"
"https://lh3.googleusercontent.com/p/AF1QipOs9q5GtAcXonFl4kyxsiENtjHrSOvH5Io1BZR8=w426-h240-k-no","MiG México Café e Insumos para cafetería","4.7","71","Av. H. Escuela Naval Militar 640-Local 2B","Coyoacán, Ciudad de México","Cd. de México","MX","https://migmexico.mx/","+52 55 3467 7267","Cafetería","https://www.google.com/maps/search/?api=1&query=MiG%20M%C3%A9xico%20Caf%C3%A9%20e%20Insumos%20para%20cafeter%C3%ADa&query_place_id=ChIJETgZAhgBzoURiNqbNitA4j8"
"https://lh3.googleusercontent.com/gps-cs-s/AC9h4nqkgrm5_OXmcWL3voVxgLK6uwCdgLcvb9ZoP4xgVXh0tgG1h5PdPGcLcYGW-hkFIXqXIAUUIHU_OoDgv8-JMFPXmbGlASQ9bk1q8Mm0LVWkIawIZyZtA5a97qj3nUditVHlCa8=w408-h544-k-no","Cafeteria Marago Express Cofee","4.7","59","Cda. Tepetlapa 2058","Coyoacán, Ciudad de México","Cd. de México","MX",,"+52 55 4484 4520","Cafetería","https://www.google.com/maps/search/?api=1&query=Cafeteria%20Marago%20Express%20Cofee&query_place_id=ChIJG0x8wYwBzoURVOxPde8XRXw"
"https://lh3.googleusercontent.com/gps-cs-s/AC9h4nqFOexi1qnltF_WZEaSRqksJhp71h0zROQtF0lWyYWJBODqpHtLS0jgLlAsV6RyE46x5__4PeDe2Jw9xTyJVDXY-84ILhczLXL9UT5Fi7_eV1hBQOcxWfdB-JCBLR72OKHiCHJu=w426-h240-k-no","cafeteria como dice el meme","4.4","145","Av. la Turba 66","Iztapalapa, Ciudad de México","Cd. de México","MX",,"+52 55 6795 8153","Cafetería","https://www.google.com/maps/search/?api=1&query=cafeteria%20como%20dice%20el%20meme&query_place_id=ChIJYUIEeZEDzoURt3IrUHUobgI"
"https://lh3.googleusercontent.com/p/AF1QipMdGVuhec_va6aPjaU4WjFWY0WTQThFsZdlEHmw=w408-h306-k-no","Cafetería YY","4.7","19","Av. Carlota Armero 155","Coyoacán, Ciudad de México","Cd. de México","MX",,"+52 56 2027 5990","Cafetería","https://www.google.com/maps/search/?api=1&query=Cafeter%C3%ADa%20YY&query_place_id=ChIJqxQevBMBzoUR03XCcw6a1gE"
"https://lh3.googleusercontent.com/gps-cs-s/AC9h4noo1ITADYRsdQOaTw06_kSXAOfD947gMw1TYOqp7BMxwfnE5EwoK9IawZO92W92rDsT0U-jaDHm6er0mNvH4HwraXw5lngD-p_MheJVuSZ5c2gI3Ab_sxCx-oAaJCJQtVEjBDMZ3w=w408-h544-k-no","Cafeleería","4.3","416","Calz Taxqueña 1832-Local B","Coyoacán, Ciudad de México","Cd. de México","MX","http://www.cafeleeria.org/","+52 55 5646 5228","Librería","https://www.google.com/maps/search/?api=1&query=Cafeleer%C3%ADa&query_place_id=ChIJOez8TuABzoURGylbbQjMpuE"
"https://lh3.googleusercontent.com/gps-cs-s/AC9h4nr_fM75pUcWeOBo3xQeYk5RqenUyi-fIUDRv9B7fzWsIsWuVQGo1cSD8Vuwx9j4NU-y-TO2C5lRr4xtr7R1JRaTP66LLoZ6ae5U3L5-LI6LaNwjpkHkt98-SrvXSNhRW9uQZ4ZfaA=w519-h240-k-no","Cafetería Negro y Caliente","4.8","21","Calle Benito Juárez 22","Tlalnepantla","Estado de México","MX",,"+52 56 1127 7539","Cafetería","https://www.google.com/maps/search/?api=1&query=Cafeter%C3%ADa%20Negro%20y%20Caliente&query_place_id=ChIJk8GWElr50YURh-0sBwONN30"
"https://lh3.googleusercontent.com/p/AF1QipPVNkTjLlbzJrGznKlk3Ps0SzOEpzgCj0DTWodn=w408-h544-k-no","Cafeteria Axis","4.9","34","Av Instituto Politécnico Nacional 5121","Gustavo A. Madero, Ciudad de México","Cd. de México","MX",,"+52 55 3646 7021","Cafetería","https://www.google.com/maps/search/?api=1&query=Cafeteria%20Axis&query_place_id=ChIJ_wO_dkX50YUR6YU_Lg-K8WM"
"https://lh3.googleusercontent.com/gps-cs-s/AC9h4nojiQ1Baefh1hDbHj47Pe0CY9llKBhuoV2NAhSe-wBFLyxtMQ92pFh1VlekH-JaKzvLWfsT5PArZh9Y4n-yEox2PzRwRXaO9oYqGCYzDlPAjJi99T5SkqjyxsUdvp6NltNFkGC2=w408-h306-k-no","Cafeteria La Piedad","4.3","1236","07180, Cda. Juventino Rosas 23A","Gustavo A. Madero, Ciudad de México","CDMX","MX",,"+52 55 2651 0205","Cafetería","https://www.google.com/maps/search/?api=1&query=Cafeteria%20La%20Piedad&query_place_id=ChIJuWVQ4BH30YURpVKR_4z8NFs"
"https://lh3.googleusercontent.com/gps-cs-s/AC9h4no7GLBmZY89B6XmKSrIebK2kROhrqhcLRN2nB0OA6p2z0SDZ12uwGYo6s2I3RPNnKT2g4AKmfmuoNhiWQ_7zZA_WLDVSlbsqoW5kLAXgPPFzOsEsjpzLMn4pzEv8oyyvl4WIPsO=w408-h306-k-no","cafeteria eskaparat","4.3","146","Calle Aztecas 21","Azcapotzalco, Ciudad de México","Cd. de México","MX",,"+52 55 1842 6256","Cafetería","https://www.google.com/maps/search/?api=1&query=cafeteria%20eskaparat&query_place_id=ChIJVyF-rX_40YURTGz-lEBFtJE"
"https://lh3.googleusercontent.com/gps-cs-s/AC9h4nojbKpztaKtKOvOS8YITyUucXn_i_ZoSao4lFSF__8SIM8VDTZOIbs03J0t6aFrd2zcclW2dBAt6aUWS71bswMQta4Yp8WJHkx8ggYcHTgSNh5wIWFoxM5VqKs3ajy6XfnHwGmTBQ=w408-h306-k-no","Cafetería La Piedad Jardin","4.3","219","Francisco Villa 1C","Gustavo A. Madero, Ciudad de México","Cd. de México","MX",,,"Cafetería","https://www.google.com/maps/search/?api=1&query=Cafeter%C3%ADa%20La%20Piedad%20Jardin&query_place_id=ChIJYfTJVOj30YURIIlmUFvoL6U"
"https://lh3.googleusercontent.com/gps-cs-s/AC9h4nqnE6TUIWIhMNCRvcYxEWJfS3V0Ezihv2mRAxEYB2Jm0GyJhaPcaIGSlJ_GHaXObBEVDDTze3H-3XFJvtQWPYUfUIDGRuO_DM8ElQk2bVC0H6pdfsczr3xnAirFobVxO1EmxIM=w532-h240-k-no","Cafetería Santa Dominga","4.1","127","Av México 13-local C","Cuauhtémoc, Ciudad de México","Cd. de México","MX",,"+52 10546558","Cafetería","https://www.google.com/maps/search/?api=1&query=Cafeter%C3%ADa%20Santa%20Dominga&query_place_id=ChIJy5bxSUf_0YURgvN-teP3uXA"
"https://lh3.googleusercontent.com/gps-cs-s/AC9h4np6yuLUEBDsH076tzOlUWWxesL3hFUp8wqd4gBVQEU2wpxkx1bMhYsTTYRK0H1OqczUHuft_gsjbLs9QnG5j0UpXrmy39DGiZDcfDuJeChko_lihbRttRS72jej7fIvewEr9Lejwg=w408-h306-k-no","585 Santa Clara Amores, Heladería y Cafetería","4.3","751","Calle San Borja 634","Benito Juárez, Ciudad de México","Cd. de México","MX","https://www.santaclara.com.mx/",,"Cafetería","https://www.google.com/maps/search/?api=1&query=585%20Santa%20Clara%20Amores%2C%20Helader%C3%ADa%20y%20Cafeter%C3%ADa&query_place_id=ChIJ-_cJnwr_0YURPQPYOE84luU"
